Structure_ID,Building_Name,latitude,longitude,Street_Name,Street__Number,City,Closest__Station_ID,Distance_To__Closest__Station_km_For_Maule_Chile_2010,Distance_To__Closest__Station_km_For_Valparaiso_Chile_1985,General___Drawings,Main__Building__Photo,Example_of__Severe_Damage,Closest__Station_Name,Max__Hor__PGA__g__For_Maule_Chile_2010,Max__Hor__PGA__g__For_Valparaiso_Chile_1985,Max__Hor__PGV__m_s__For_Maule_Chile_2010,Max__Hor__PGV__m_s__For_Valparaiso_Chile_1985
181,Independencia,-36.831751,-73.059099,Av Liberador Bernardo O'Higgins,,Concepcion,25,1.04335963363525,,/data/tools/geoexplorer/Chile-NIST/general_drawings/181/6/README.TXT\n/data/tools/geoexplorer/Chile-NIST/general_drawings/181/6/T-EI-01.dwg\n/data/tools/geoexplorer/Chile-NIST/general_drawings/181/6/T-EI-02.dwg\n/data/tools/geoexplorer/Chile-NIST/general_drawings/181/6/T-EI-03.dwg\n/data/tools/geoexplorer/Chile-NIST/general_drawings/181/6/T-EI-04.dwg\n/data/tools/geoexplorer/Chile-NIST/general_drawings/181/6/T-EI-05.dwg\n/data/tools/geoexplorer/Chile-NIST/general_drawings/181/6/T-EI-06.dwg\n/data/tools/geoexplorer/Chile-NIST/general_drawings/181/6/T-EI-07.dwg\n/data/tools/geoexplorer/Chile-NIST/general_drawings/181/6/T-EI-08(1).dwg\n/data/tools/geoexplorer/Chile-NIST/general_drawings/181/6/T-EI-09(2).dwg\n/data/tools/geoexplorer/Chile-NIST/general_drawings/181/6/T-EI-10(2'-3-6).dwg\n/data/tools/geoexplorer/Chile-NIST/general_drawings/181/6/T-EI-11(4).dwg\n/data/tools/geoexplorer/Chile-NIST/general_drawings/181/6/T-EI-12(5).dwg\n/data/tools/geoexplorer/Chile-NIST/general_drawings/181/6/T-EI-13(5').dwg\n/data/tools/geoexplorer/Chile-NIST/general_drawings/181/6/T-EI-14(7-7'-8-8').dwg\n/data/tools/geoexplorer/Chile-NIST/general_drawings/181/6/T-EI-15(9).dwg\n/data/tools/geoexplorer/Chile-NIST/general_drawings/181/6/T-EI-16(9'-10).dwg\n/data/tools/geoexplorer/Chile-NIST/general_drawings/181/6/T-EI-17(11-12).dwg\n/data/tools/geoexplorer/Chile-NIST/general_drawings/181/6/T-EI-18(13-14-16).dwg\n/data/tools/geoexplorer/Chile-NIST/general_drawings/181/6/T-EI-19(1'-15).dwg\n/data/tools/geoexplorer/Chile-NIST/general_drawings/181/6/T-EI-20(A).dwg\n/data/tools/geoexplorer/Chile-NIST/general_drawings/181/6/T-EI-21(D-D').dwg\n/data/tools/geoexplorer/Chile-NIST/general_drawings/181/6/T-EI-22(E-F).dwg\n/data/tools/geoexplorer/Chile-NIST/general_drawings/181/6/T-EI-23(F'-G-G').dwg\n/data/tools/geoexplorer/Chile-NIST/general_drawings/181/6/T-EI-24(H-I).dwg\n/data/tools/geoexplorer/Chile-NIST/general_drawings/181/6/T-EI-25(J-K).dwg\n/data/tools/geoexplorer/Chile-NIST/general_drawings/181/6/T-EI-26(L-M).dwg\n/data/tools/geoexplorer/Chile-NIST/general_drawings/181/6/T-EI-27(N-O).dwg\n/data/tools/geoexplorer/Chile-NIST/general_drawings/181/6/T-EI-28(P-Q-R).dwg,/data/tools/geoexplorer/Chile-NIST/photos/Maule.Chile.2010/181/1/jay_harris_Edificio Independencia - 0068 - JLH.JPG,/data/tools/geoexplorer/Chile-NIST/photos/Maule.Chile.2010/181/1/jay_harris_Edificio Independencia - 0007 - JLH.JPG,COLEGIO INMACULADA,0.402,,0.68,
182,Plaza Del Rio,-36.820514,-73.061961,Calle Obispo Salas,1343,Concepcion,25,1.47988955193215,,"/data/tools/geoexplorer/Chile-NIST/general_drawings/182/43/A00 (PRdocumentation, PRdrawings, PRmunicipalPermit, PRarchitectural).PDF\n/data/tools/geoexplorer/Chile-NIST/general_drawings/182/43/A01 (PRdocumentation, PRdrawings, PRmunicipalPermit, PRarchitectural).PDF\n/data/tools/geoexplorer/Chile-NIST/general_drawings/182/43/A02 (PRdocumentation, PRdrawings, PRmunicipalPermit, PRarchitectural).PDF\n/data/tools/geoexplorer/Chile-NIST/general_drawings/182/43/A03 (PRdocumentation, PRdrawings, PRmunicipalPermit, PRarchitectural).PDF\n/data/tools/geoexplorer/Chile-NIST/general_drawings/182/43/A04 (PRdocumentation, PRdrawings, PRmunicipalPermit, PRarchitectural).PDF\n/data/tools/geoexplorer/Chile-NIST/general_drawings/182/43/A05 (PRdocumentation, PRdrawings, PRmunicipalPermit, PRarchitectural).PDF\n/data/tools/geoexplorer/Chile-NIST/general_drawings/182/43/A06 (PRdocumentation, PRdrawings, PRmunicipalPermit, PRarchitectural).PDF\n/data/tools/geoexplorer/Chile-NIST/general_drawings/182/43/A07 (PRdocumentation, PRdrawings, PRmunicipalPermit, PRarchitectural).PDF\n/data/tools/geoexplorer/Chile-NIST/general_drawings/182/43/A08 (PRdocumentation, PRdrawings, PRmunicipalPermit, PRarchitectural).PDF\n/data/tools/geoexplorer/Chile-NIST/general_drawings/182/43/A09 (PRdocumentation, PRdrawings, PRmunicipalPermit, PRarchitectural).PDF\n/data/tools/geoexplorer/Chile-NIST/general_drawings/182/43/A10 (PRdocumentation, PRdrawings, PRmunicipalPermit, PRarchitectural).PDF\n/data/tools/geoexplorer/Chile-NIST/general_drawings/182/43/A11 (PRdocumentation, PRdrawings, PRmunicipalPermit, PRarchitectural).PDF\n/data/tools/geoexplorer/Chile-NIST/general_drawings/182/43/A12 (PRdocumentation, PRdrawings, PRmunicipalPermit, PRarchitectural).PDF\n/data/tools/geoexplorer/Chile-NIST/general_drawings/182/43/AL1 (PRdocumentation, PRdrawings, PRmunicipalPermit, PRarchitectural).PDF\n/data/tools/geoexplorer/Chile-NIST/general_drawings/182/43/AS1 (PRdocumentation, PRdrawings, PRmunicipalPermit, PRarchitectural).PDF\n/data/tools/geoexplorer/Chile-NIST/general_drawings/182/43/AS2 (PRdocumentation, PRdrawings, PRmunicipalPermit, PRarchitectural).PDF\n/data/tools/geoexplorer/Chile-NIST/general_drawings/182/43/E01 (PRdocumentation, PRdrawings, PRmunicipalPermit, PRstructural).PDF\n/data/tools/geoexplorer/Chile-NIST/general_drawings/182/43/E02 (PRdocumentation, PRdrawings, PRmunicipalPermit, PRstructural).PDF\n/data/tools/geoexplorer/Chile-NIST/general_drawings/182/43/E03 (PRdocumentation, PRdrawings, PRmunicipalPermit, PRstructural).PDF\n/data/tools/geoexplorer/Chile-NIST/general_drawings/182/43/E04 (PRdocumentation, PRdrawings, PRmunicipalPermit, PRstructural).PDF\n/data/tools/geoexplorer/Chile-NIST/general_drawings/182/43/E05 (PRdocumentation, PRdrawings, PRmunicipalPermit, PRstructural).PDF\n/data/tools/geoexplorer/Chile-NIST/general_drawings/182/43/E06 (PRdocumentation, PRdrawings, PRmunicipalPermit, PRstructural).PDF\n/data/tools/geoexplorer/Chile-NIST/general_drawings/182/43/E07 (PRdocumentation, PRdrawings, PRmunicipalPermit, PRstructural).PDF\n/data/tools/geoexplorer/Chile-NIST/general_drawings/182/43/E08 (PRdocumentation, PRdrawings, PRmunicipalPermit, PRstructural).PDF\n/data/tools/geoexplorer/Chile-NIST/general_drawings/182/43/E09 (PRdocumentation, PRdrawings, PRmunicipalPermit, PRstructural).PDF\n/data/tools/geoexplorer/Chile-NIST/general_drawings/182/43/E10 (PRdocumentation, PRdrawings, PRmunicipalPermit, PRstructural).PDF\n/data/tools/geoexplorer/Chile-NIST/general_drawings/182/43/E11 (PRdocumentation, PRdrawings, PRmunicipalPermit, PRstructural).PDF\n/data/tools/geoexplorer/Chile-NIST/general_drawings/182/43/E12 (PRdocumentation, PRdrawings, PRmunicipalPermit, PRstructural).PDF\n/data/tools/geoexplorer/Chile-NIST/general_drawings/182/43/E13 (PRdocumentation, PRdrawings, PRmunicipalPermit, PRstructural).PDF\n/data/tools/geoexplorer/Chile-NIST/general_drawings/182/43/E14 (PRdocumentation, PRdrawings, PRmunicipalPermit, PRstructural).PDF\n/data/tools/geoexplorer/Chile-NIST/general_drawings/182/43/E15 (PRdocumentation, PRdrawings, PRmunicipalPermit, PRstructural).PDF\n/data/tools/geoexplorer/Chile-NIST/general_drawings/182/43/E16 (PRdocumentation, PRdrawings, PRmunicipalPermit, PRstructural).PDF\n/data/tools/geoexplorer/Chile-NIST/general_drawings/182/43/E17 (PRdocumentation, PRdrawings, PRmunicipalPermit, PRstructural).PDF\n/data/tools/geoexplorer/Chile-NIST/general_drawings/182/43/E18 (PRdocumentation, PRdrawings, PRmunicipalPermit, PRstructural).PDF\n/data/tools/geoexplorer/Chile-NIST/general_drawings/182/43/E19 (PRdocumentation, PRdrawings, PRmunicipalPermit, PRstructural).PDF\n/data/tools/geoexplorer/Chile-NIST/general_drawings/182/43/E20 (PRdocumentation, PRdrawings, PRmunicipalPermit, PRstructural).PDF\n/data/tools/geoexplorer/Chile-NIST/general_drawings/182/43/L1-25_PAISAJISMO (PRdocumentation, PRdrawings, PRdeveloper, PRarchitectural).dwg\n/data/tools/geoexplorer/Chile-NIST/general_drawings/182/43/L2-25_SUP.MUNICIPAL (PRdocumentation, PRdrawings, PRdeveloper, PRarchitectural).dwg\n/data/tools/geoexplorer/Chile-NIST/general_drawings/182/43/L3-25_PL1ºNIVEL (PRdocumentation, PRdrawings, PRdeveloper, PRarchitectural).dwg\n/data/tools/geoexplorer/Chile-NIST/general_drawings/182/43/L4-25_PL2ºY3ºNIVEL (PRdocumentation, PRdrawings, PRdeveloper, PRarchitectural).dwg\n/data/tools/geoexplorer/Chile-NIST/general_drawings/182/43/L5-25_PL4ºa7ºy8º12ºNIVEL (PRdocumentation, PRdrawings, PRdeveloper, PRarchitectural).dwg\n/data/tools/geoexplorer/Chile-NIST/general_drawings/182/43/L6-25_PL13ºyTECHUMBRE (PRdocumentation, PRdrawings, PRdeveloper, PRarchitectural).dwg\n/data/tools/geoexplorer/Chile-NIST/general_drawings/182/43/L7y8-25_Elevaciones (PRdocumentation, PRdrawings, PRdeveloper, PRarchitectural).dwg\n/data/tools/geoexplorer/Chile-NIST/general_drawings/182/43/T-PDR-01M (PRdocumentation, PRdrawings, PRdeveloper, PRstructural).dwg\n/data/tools/geoexplorer/Chile-NIST/general_drawings/182/43/T-PDR-02 (PRdocumentation, PRdrawings, PRdeveloper, PRstructural).dwg\n/data/tools/geoexplorer/Chile-NIST/general_drawings/182/43/T-PDR-03M (PRdocumentation, PRdrawings, PRdeveloper, PRstructural).dwg\n/data/tools/geoexplorer/Chile-NIST/general_drawings/182/43/T-PDR-04M (PRdocumentation, PRdrawings, PRdeveloper, PRstructural).dwg\n/data/tools/geoexplorer/Chile-NIST/general_drawings/182/43/T-PDR-05M (PRdocumentation, PRdrawings, PRdeveloper, PRstructural).dwg\n/data/tools/geoexplorer/Chile-NIST/general_drawings/182/43/T-PDR-06M (PRdocumentation, PRdrawings, PRdeveloper, PRstructural).dwg\n/data/tools/geoexplorer/Chile-NIST/general_drawings/182/43/T-PDR-07M (PRdocumentation, PRdrawings, PRdeveloper, PRstructural).dwg\n/data/tools/geoexplorer/Chile-NIST/general_drawings/182/43/T-PDR-08M (PRdocumentation, PRdrawings, PRdeveloper, PRstructural).dwg\n/data/tools/geoexplorer/Chile-NIST/general_drawings/182/43/T-PDR-09M (PRdocumentation, PRdrawings, PRdeveloper, PRstructural).dwg\n/data/tools/geoexplorer/Chile-NIST/general_drawings/182/43/T-PDR-10 (PRdocumentation, PRdrawings, PRdeveloper, PRstructural).dwg\n/data/tools/geoexplorer/Chile-NIST/general_drawings/182/43/T-PDR-11 (PRdocumentation, PRdrawings, PRdeveloper, PRstructural).dwg\n/data/tools/geoexplorer/Chile-NIST/general_drawings/182/43/T-PDR-12 (PRdocumentation, PRdrawings, PRdeveloper, PRstructural).dwg\n/data/tools/geoexplorer/Chile-NIST/general_drawings/182/43/T-PDR-13 (PRdocumentation, PRdrawings, PRdeveloper, PRstructural).dwg\n/data/tools/geoexplorer/Chile-NIST/general_drawings/182/43/T-PDR-14 (PRdocumentation, PRdrawings, PRdeveloper, PRstructural).dwg\n/data/tools/geoexplorer/Chile-NIST/general_drawings/182/43/T-PDR-15 (PRdocumentation, PRdrawings, PRdeveloper, PRstructural).dwg\n/data/tools/geoexplorer/Chile-NIST/general_drawings/182/43/T-PDR-16 (PRdocumentation, PRdrawings, PRdeveloper, PRstructural).dwg\n/data/tools/geoexplorer/Chile-NIST/general_drawings/182/43/T-PDR-17M (PRdocumentation, PRdrawings, PRdeveloper, PRstructural).dwg\n/data/tools/geoexplorer/Chile-NIST/general_drawings/182/43/T-PDR-18 (PRdocumentation, PRdrawings, PRdeveloper, PRstructural).dwg\n/data/tools/geoexplorer/Chile-NIST/general_drawings/182/43/T-PDR-19 (PRdocumentation, PRdrawings, PRdeveloper, PRstructural).dwg\n/data/tools/geoexplorer/Chile-NIST/general_drawings/182/43/T-PDR-20M (PRdocumentation, PRdrawings, PRdeveloper, PRstructural).dwg\n/data/tools/geoexplorer/Chile-NIST/general_drawings/182/43/T-PDR-21 (PRdocumentation, PRdrawings, PRdeveloper, PRstructural).dwg\n/data/tools/geoexplorer/Chile-NIST/general_drawings/182/43/T-PDR-22M (PRdocumentation, PRdrawings, PRdeveloper, PRstructural).dwg\n/data/tools/geoexplorer/Chile-NIST/general_drawings/182/43/T-PDR-23 (PRdocumentation, PRdrawings, PRdeveloper, PRstructural).dwg\n/data/tools/geoexplorer/Chile-NIST/general_drawings/182/43/T-PDR-24 (PRdocumentation, PRdrawings, PRdeveloper, PRstructural).dwg\n/data/tools/geoexplorer/Chile-NIST/general_drawings/182/43/T-PDR-25 (PRdocumentation, PRdrawings, PRdeveloper, PRstructural).dwg\n/data/tools/geoexplorer/Chile-NIST/general_drawings/182/43/T-PDR-26 (PRdocumentation, PRdrawings, PRdeveloper, PRstructural).dwg\n/data/tools/geoexplorer/Chile-NIST/general_drawings/182/43/T-PDR-27M (PRdocumentation, PRdrawings, PRdeveloper, PRstructural).dwg\n/data/tools/geoexplorer/Chile-NIST/general_drawings/182/43/T-PDR-28 (PRdocumentation, PRdrawings, PRdeveloper, PRstructural).dwg\n/data/tools/geoexplorer/Chile-NIST/general_drawings/182/43/T-PDR-29M (PRdocumentation, PRdrawings, PRdeveloper, PRstructural).dwg\n/data/tools/geoexplorer/Chile-NIST/general_drawings/182/43/T-PDR-30 (PRdocumentation, PRdrawings, PRdeveloper, PRstructural).dwg\n/data/tools/geoexplorer/Chile-NIST/general_drawings/182/43/T-PDR-31 (PRdocumentation, PRdrawings, PRdeveloper, PRstructural).dwg\n/data/tools/geoexplorer/Chile-NIST/general_drawings/182/43/T-PDR-32 (PRdocumentation, PRdrawings, PRdeveloper, PRstructural).dwg\n/data/tools/geoexplorer/Chile-NIST/general_drawings/182/43/T-PDR-33 (PRdocumentation, PRdrawings, PRdeveloper, PRstructural).dwg\n/data/tools/geoexplorer/Chile-NIST/general_drawings/182/43/T-PDR-34 (PRdocumentation, PRdrawings, PRdeveloper, PRstructural).dwg\n/data/tools/geoexplorer/Chile-NIST/general_drawings/182/43/T-PDR-35a (PRdocumentation, PRdrawings, PRdeveloper, PRstructural).dwg\n/data/tools/geoexplorer/Chile-NIST/general_drawings/182/43/T-PDR-36a (PRdocumentation, PRdrawings, PRdeveloper, PRstructural).dwg\n/data/tools/geoexplorer/Chile-NIST/general_drawings/182/43/T-PDR-37a (PRdocumentation, PRdrawings, PRdeveloper, PRstructural).dwg\n/data/tools/geoexplorer/Chile-NIST/general_drawings/182/43/README.TXT",/data/tools/geoexplorer/Chile-NIST/photos/Maule.Chile.2010/182/32/latbsdc_PDR-100.jpg,/data/tools/geoexplorer/Chile-NIST/photos/Maule.Chile.2010/182/5/santiago_pujol_IMG_0297.JPG,COLEGIO INMACULADA,0.402,,0.68,
