Structure_ID,Building_Name,latitude,longitude,Street_Name,Street__Number,City,Closest__Station_ID,Distance_To__Closest__Station_km_For_Maule_Chile_2010,Distance_To__Closest__Station_km_For_Valparaiso_Chile_1985,General___Drawings,Main__Building__Photo,Example_of__Severe_Damage,Closest__Station_Name,Max__Hor__PGA__g__For_Maule_Chile_2010,Max__Hor__PGA__g__For_Valparaiso_Chile_1985,Max__Hor__PGV__m_s__For_Maule_Chile_2010,Max__Hor__PGV__m_s__For_Valparaiso_Chile_1985
1,PLAZA DEL MAR,-33.013824,-71.554977,SAN MARTIN,787,Viña del Mar,8,1.33417709751359,3.37229271035967,/data/tools/geoexplorer/Chile-NIST/general_drawings/1/10/elevation.pdf\n/data/tools/geoexplorer/Chile-NIST/general_drawings/1/10/typical_floor_plan_532.pdf\n/data/tools/geoexplorer/Chile-NIST/general_drawings/1/9/typical_plan_architectural.pdf,/data/tools/geoexplorer/Chile-NIST/photos/Maule.Chile.2010/1/4/andres_lepage_DSCN0182.jpg,,CENTRO,0.334,0.363,0.33,
3,TORRES DEL SOL,-33.015135,-71.554475,8 NORTE,310 - 330,Viña del Mar,8,1.18108851413516,3.31942385246642,/data/tools/geoexplorer/Chile-NIST/general_drawings/3/10/3rd_and_5th_floor_plans_532.pdf\n/data/tools/geoexplorer/Chile-NIST/general_drawings/3/10/elevation_a_and_d.pdf\n/data/tools/geoexplorer/Chile-NIST/general_drawings/3/10/elevation_b_and_c.pdf\n/data/tools/geoexplorer/Chile-NIST/general_drawings/3/10/elevation_f_and_g.pdf\n/data/tools/geoexplorer/Chile-NIST/general_drawings/3/10/first_floor_plan_532.pdf\n/data/tools/geoexplorer/Chile-NIST/general_drawings/3/9/first_story_plan.pdf\n/data/tools/geoexplorer/Chile-NIST/general_drawings/3/9/mezzanine_plan.pdf\n/data/tools/geoexplorer/Chile-NIST/general_drawings/3/9/second_story_plan.pdf\n/data/tools/geoexplorer/Chile-NIST/general_drawings/3/9/third_to_sixth_story_plan.pdf,/data/tools/geoexplorer/Chile-NIST/photos/Maule.Chile.2010/3/5/santiago_pujol_IMG_0285.JPG,,CENTRO,0.334,0.363,0.33,
5,TORRES DE MIRAMAR,-33.011652,-71.552163,SAN MARTIN,1020 Y 1080,Viña del Mar,8,1.52289988312439,3.72834105862305,/data/tools/geoexplorer/Chile-NIST/general_drawings/5/10/3rd_and_5th_floor_plans_532.pdf\n/data/tools/geoexplorer/Chile-NIST/general_drawings/5/10/elevation.pdf\n/data/tools/geoexplorer/Chile-NIST/general_drawings/5/10/elevation_a.pdf\n/data/tools/geoexplorer/Chile-NIST/general_drawings/5/10/first_floor_plan_532.pdf\n/data/tools/geoexplorer/Chile-NIST/general_drawings/5/9/first_story_plan.pdf\n/data/tools/geoexplorer/Chile-NIST/general_drawings/5/9/second_story_plan.pdf\n/data/tools/geoexplorer/Chile-NIST/general_drawings/5/9/typical_oddnumbered_story_plan.pdf,/data/tools/geoexplorer/Chile-NIST/photos/Maule.Chile.2010/5/4/andres_lepage_DSCN0258.jpg,,CENTRO,0.334,0.363,0.33,
6,MARINA REAL,-33.013352,-71.553622,SAN MARTIN,880,Viña del Mar,8,1.35435992464023,3.50357341109831,/data/tools/geoexplorer/Chile-NIST/general_drawings/6/10/4th_to_8th_floor_plans_532.pdf\n/data/tools/geoexplorer/Chile-NIST/general_drawings/6/10/elevation.pdf\n/data/tools/geoexplorer/Chile-NIST/general_drawings/6/10/first_floor_plan_532.pdf\n/data/tools/geoexplorer/Chile-NIST/general_drawings/6/9/first_story_plan.pdf\n/data/tools/geoexplorer/Chile-NIST/general_drawings/6/9/fourth_to_eighth_story_plan.pdf\n/data/tools/geoexplorer/Chile-NIST/general_drawings/6/9/second_and_third_story_plan.pdf,/data/tools/geoexplorer/Chile-NIST/photos/Maule.Chile.2010/6/4/andres_lepage_DSCN0211.jpg,/data/tools/geoexplorer/Chile-NIST/photos/Maule.Chile.2010/6/19/john_wallace_P3151771.JPG,CENTRO,0.334,0.363,0.33,
7,TORRES DEL PACIFICO,-33.010018,-71.551305,SAN MARTIN,1130 - 1206 - S/N,Viña del Mar,8,1.69993307243275,3.90674567242666,/data/tools/geoexplorer/Chile-NIST/general_drawings/7/10/3rd_to_5th_floor_plans_532.pdf\n/data/tools/geoexplorer/Chile-NIST/general_drawings/7/10/elevation_2.pdf\n/data/tools/geoexplorer/Chile-NIST/general_drawings/7/10/elevation_3.pdf\n/data/tools/geoexplorer/Chile-NIST/general_drawings/7/10/first_floor_plan_532.pdf\n/data/tools/geoexplorer/Chile-NIST/general_drawings/7/9/foundation_plan.pdf\n/data/tools/geoexplorer/Chile-NIST/general_drawings/7/9/second_story_plan.pdf\n/data/tools/geoexplorer/Chile-NIST/general_drawings/7/9/typical_plan_architectural.pdf,/data/tools/geoexplorer/Chile-NIST/photos/Valparaiso.Chile.1985/7/10/srs_532_torres_del_pacifico2_532.jpg,,CENTRO,0.334,0.363,0.33,
9,ACAPULCO,-33.013235,-71.554459,SAN MARTIN,821,Viña del Mar,8,1.38426297580296,3.45118453609357,/data/tools/geoexplorer/Chile-NIST/general_drawings/9/10/2nd_to_6th_floor_plans_532.pdf\n/data/tools/geoexplorer/Chile-NIST/general_drawings/9/10/elevation_j.pdf\n/data/tools/geoexplorer/Chile-NIST/general_drawings/9/9/second_story_plan.pdf,/data/tools/geoexplorer/Chile-NIST/photos/Maule.Chile.2010/9/4/andres_lepage_DSCN0183.jpg,/data/tools/geoexplorer/Chile-NIST/photos/Maule.Chile.2010/9/3/gabriel_alarcon_DSC02701.JPG,CENTRO,0.334,0.363,0.33,
10,TAHITI,-33.011937,-71.552563,SAN MARTIN,972,Viña del Mar,8,1.4949620667042,3.67940321713701,/data/tools/geoexplorer/Chile-NIST/general_drawings/10/9/typical_plan_architectural.pdf,/data/tools/geoexplorer/Chile-NIST/photos/Maule.Chile.2010/10/5/santiago_pujol_IMG_0334.JPG,,CENTRO,0.334,0.363,0.33,
13,FESTIVAL,-33.014301,-71.552957,9 NORTE,450,Viña del Mar,8,1.23945717169273,3.48833149539234,/data/tools/geoexplorer/Chile-NIST/general_drawings/13/10/elevation_l.pdf\n/data/tools/geoexplorer/Chile-NIST/general_drawings/13/10/first_floor_plan_532.pdf\n/data/tools/geoexplorer/Chile-NIST/general_drawings/13/9/first_story_plan_architectural.pdf\n/data/tools/geoexplorer/Chile-NIST/general_drawings/13/9/second_story_plan_architectural.pdf,/data/tools/geoexplorer/Chile-NIST/photos/Maule.Chile.2010/13/5/santiago_pujol_IMG_0253.JPG,/data/tools/geoexplorer/Chile-NIST/photos/Maule.Chile.2010/13/5/santiago_pujol_IMG_0085.JPG,CENTRO,0.334,0.363,0.33,
16,GALLERIA LIBERTAD CENTRO,-33.017666,-71.550039,LIBERTAD / 6 NORTE,466,Viña del Mar,8,0.8518220367041,3.51427220817604,/data/tools/geoexplorer/Chile-NIST/general_drawings/16/9/first_story_plan_architectural.pdf\n/data/tools/geoexplorer/Chile-NIST/general_drawings/16/9/fourth_story_plan.pdf\n/data/tools/geoexplorer/Chile-NIST/general_drawings/16/9/typical_plan_architectural.pdf,/data/tools/geoexplorer/Chile-NIST/photos/Maule.Chile.2010/16/4/andres_lepage_DSCN0049.jpg,/data/tools/geoexplorer/Chile-NIST/photos/Maule.Chile.2010/16/5/santiago_pujol_IMG_0535.JPG,CENTRO,0.334,0.363,0.33,
19,ATALAYA,-33.015187,-71.556777,AV. PERU,590,Viña del Mar,8,1.25501954884315,3.14645682217554,/data/tools/geoexplorer/Chile-NIST/general_drawings/19/9/second_and_third_story_plan_architectural.pdf,/data/tools/geoexplorer/Chile-NIST/photos/Maule.Chile.2010/19/4/andres_lepage_DSCN0561.jpg,,CENTRO,0.334,0.363,0.33,
21,MEDITERRANEO,-33.01993,-71.549194,4 NORTE - 1 ORIENTE,,Viña del Mar,8,0.615603501534832,3.47060717009491,/data/tools/geoexplorer/Chile-NIST/general_drawings/21/9/typical_plan_architectural.pdf,/data/tools/geoexplorer/Chile-NIST/photos/Maule.Chile.2010/21/4/andres_lepage_DSCN0506.jpg,,CENTRO,0.334,0.363,0.33,
23,PONTECASINO,-33.021684,-71.560484,MARINA,110,Viña del Mar,8,0.988335279125874,2.44734352196399,,/data/tools/geoexplorer/Chile-NIST/photos/Maule.Chile.2010/23/4/andres_lepage_DSCN0119.jpg,,CENTRO,0.334,0.363,0.33,
24,SOLIMAR,-33.020006,-71.559545,SAN MARTIN,120,Viña del Mar,8,1.00561607523998,2.62090113628648,/data/tools/geoexplorer/Chile-NIST/general_drawings/24/9/typical_plan.pdf,/data/tools/geoexplorer/Chile-NIST/photos/Maule.Chile.2010/24/4/andres_lepage_DSCN0415.jpg,,CENTRO,0.334,0.363,0.33,
26,MAYA,-33.017018,-71.55723,SAN MARTIN,458,Viña del Mar,8,1.09885269403638,2.98835483619908,/data/tools/geoexplorer/Chile-NIST/general_drawings/26/9/first_story.pdf\n/data/tools/geoexplorer/Chile-NIST/general_drawings/26/9/second_story.pdf,/data/tools/geoexplorer/Chile-NIST/photos/Maule.Chile.2010/26/4/andres_lepage_DSCN0598.jpg,,CENTRO,0.334,0.363,0.33,
27,TOSSA DEL MAR,-33.0169,-71.558917,AV. PERU,444,Viña del Mar,8,1.20213871934226,2.87159996677542,/data/tools/geoexplorer/Chile-NIST/general_drawings/27/9/typical_plan_architectural.pdf,/data/tools/geoexplorer/Chile-NIST/photos/Maule.Chile.2010/27/4/andres_lepage_DSCN0511.jpg,,CENTRO,0.334,0.363,0.33,
28,CENTRO MAR,-33.015305,-71.556102,SAN MARTIN,605,Viña del Mar,8,1.21637011011742,3.18748168406999,,/data/tools/geoexplorer/Chile-NIST/photos/Maule.Chile.2010/28/4/andres_lepage_DSCN0571.jpg,,CENTRO,0.334,0.363,0.33,
29,MIRADOR,-33.020388,-71.562407,MARINA,72,Viña del Mar,8,1.21216836538385,2.37749360403824,,/data/tools/geoexplorer/Chile-NIST/photos/Maule.Chile.2010/29/4/andres_lepage_DSCN0010.jpg,,CENTRO,0.334,0.363,0.33,
38,ISAMAR,-33.018931,-71.558806,SAN MARTIN,236,Viña del Mar,8,1.02892671978436,2.74498535393592,/data/tools/geoexplorer/Chile-NIST/general_drawings/38/9/fourth_story_plan.pdf,/data/tools/geoexplorer/Chile-NIST/photos/Maule.Chile.2010/38/4/andres_lepage_DSCN0390.jpg,,CENTRO,0.334,0.363,0.33,
40,ANTUMALAL,-33.014908,-71.556543,AV. PERU,680,Viña del Mar,8,1.27356602521957,3.18295703519313,/data/tools/geoexplorer/Chile-NIST/general_drawings/40/9/typical_plan_architectural.pdf,/data/tools/geoexplorer/Chile-NIST/photos/Maule.Chile.2010/40/4/andres_lepage_DSCN0565.jpg,,CENTRO,0.334,0.363,0.33,
42,VILLA REAL,-33.017973,-71.555343,4 PONIENTE,390,Viña del Mar,8,0.918247410258866,3.07250927091743,/data/tools/geoexplorer/Chile-NIST/general_drawings/42/10/1st_and_2nd_story_plans_532.pdf\n/data/tools/geoexplorer/Chile-NIST/general_drawings/42/9/second_to_sixth_story_plan_architectural.pdf,/data/tools/geoexplorer/Chile-NIST/photos/Maule.Chile.2010/42/4/andres_lepage_DSCN0220.jpg,/data/tools/geoexplorer/Chile-NIST/photos/Maule.Chile.2010/42/4/andres_lepage_DSCN0143.jpg,CENTRO,0.334,0.363,0.33,
48,LAS PALMAS,-33.020697,-71.562088,MARINA,80,Viña del Mar,8,1.17026162801861,2.38166914900134,/data/tools/geoexplorer/Chile-NIST/general_drawings/48/9/typical_plan.pdf,/data/tools/geoexplorer/Chile-NIST/photos/Maule.Chile.2010/48/4/andres_lepage_DSCN0013.jpg,,CENTRO,0.334,0.363,0.33,
49,COPACABANA,-33.021058,-71.561709,MARINA,84,Viña del Mar,8,1.12111742230058,2.38812306494349,/data/tools/geoexplorer/Chile-NIST/general_drawings/49/9/second_story_plan.pdf,/data/tools/geoexplorer/Chile-NIST/photos/Maule.Chile.2010/49/4/andres_lepage_DSCN0020.jpg,,CENTRO,0.334,0.363,0.33,
57,ALTAMAR,-33.015838,-71.556724,SAN MARTIN,575,Viña del Mar,8,1.18828718877523,3.10528765141668,/data/tools/geoexplorer/Chile-NIST/general_drawings/57/9/typical_plan.pdf,/data/tools/geoexplorer/Chile-NIST/photos/Maule.Chile.2010/57/5/santiago_pujol_IMG_0915.JPG,,CENTRO,0.334,0.363,0.33,
58,LOS ALAMOS,,,3 NORTE,207,Viña del Mar,,,,/data/tools/geoexplorer/Chile-NIST/general_drawings/58/9/first_story_plan.pdf,/data/tools/geoexplorer/Chile-NIST/photos/Valparaiso.Chile.1985/58/9/srs_534_los_alamos1.jpg,,,,,,
59,LAS TERRAZAS,,,5 PONIENTE,336,Viña del Mar,,,,/data/tools/geoexplorer/Chile-NIST/general_drawings/59/9/first_story_plan.pdf\n/data/tools/geoexplorer/Chile-NIST/general_drawings/59/9/typical_plan.pdf,/data/tools/geoexplorer/Chile-NIST/photos/Maule.Chile.2010/59/40/jon_heintz_DSC05868.JPG,,,,,,
59,LAS TERRAZAS,,,5 PONIENTE,336,Viña del Mar,,,,/data/tools/geoexplorer/Chile-NIST/general_drawings/59/9/first_story_plan.pdf\n/data/tools/geoexplorer/Chile-NIST/general_drawings/59/9/typical_plan.pdf,/data/tools/geoexplorer/Chile-NIST/photos/Maule.Chile.2010/59/40/jon_heintz_DSC05868.JPG,,,,,,
60,EL MAR,,,VICUNA MACKENNA,S/N,Viña del Mar,,,,/data/tools/geoexplorer/Chile-NIST/general_drawings/60/9/first_story_plan.pdf,/data/tools/geoexplorer/Chile-NIST/photos/Valparaiso.Chile.1985/60/9/srs_534_el_mar1.jpg,,,,,,
61,ANCONA,,,7 NORTE,65,Viña del Mar,,,,/data/tools/geoexplorer/Chile-NIST/general_drawings/61/9/first_story_plan.pdf,/data/tools/geoexplorer/Chile-NIST/photos/Maule.Chile.2010/61/4/andres_lepage_DSCN0586.jpg,,,,,,
61,ANCONA,,,7 NORTE,65,Viña del Mar,,,,/data/tools/geoexplorer/Chile-NIST/general_drawings/61/9/first_story_plan.pdf,/data/tools/geoexplorer/Chile-NIST/photos/Maule.Chile.2010/61/4/andres_lepage_DSCN0586.jpg,,,,,,
62,MARINA,,,MARINA,94,Viña del Mar,,,,/data/tools/geoexplorer/Chile-NIST/general_drawings/62/9/fifth_and_sixth_story_plan.pdf,/data/tools/geoexplorer/Chile-NIST/photos/Valparaiso.Chile.1985/62/9/srs_534_marina1.jpg,,,,,,
63,SAUSALITO,,,7 NORTE,52,Viña del Mar,,,,/data/tools/geoexplorer/Chile-NIST/general_drawings/63/9/second_story_plan.pdf,/data/tools/geoexplorer/Chile-NIST/photos/Valparaiso.Chile.1985/63/9/srs_534_sausalito1.jpg,,,,,,
64,FONTANA,-33.020175,-71.559725,2 NORTE,17,Viña del Mar,8,1.00853237628034,2.59654693673954,/data/tools/geoexplorer/Chile-NIST/general_drawings/64/9/fourth_story_plan.pdf,/data/tools/geoexplorer/Chile-NIST/photos/Maule.Chile.2010/64/4/andres_lepage_DSCN0421.jpg,,CENTRO,0.334,0.363,0.33,
71,RIVIERA,-33.019547,-71.558898,3 NORTE,60,Viña del Mar,8,0.989564680561198,2.69938358866416,/data/tools/geoexplorer/Chile-NIST/general_drawings/71/9/first_story_plan.pdf,/data/tools/geoexplorer/Chile-NIST/photos/Maule.Chile.2010/71/4/andres_lepage_DSCN0397.jpg,,CENTRO,0.334,0.363,0.33,
84,MONTE CARLO,-33.015895,-71.555983,6 NORTE,241 - 289,Viña del Mar,8,1.15203593932581,3.15624764989268,/data/tools/geoexplorer/Chile-NIST/general_drawings/84/9/typical_plan.pdf,/data/tools/geoexplorer/Chile-NIST/photos/Maule.Chile.2010/84/4/andres_lepage_DSCN0192.jpg,,CENTRO,0.334,0.363,0.33,
86,ROTONDA,-33.019764,-71.559271,SAN MARTIN,160 - 172,Viña del Mar,8,1.00133302811178,2.6570636403067,/data/tools/geoexplorer/Chile-NIST/general_drawings/86/9/first_story_plan.pdf,/data/tools/geoexplorer/Chile-NIST/photos/Maule.Chile.2010/86/4/andres_lepage_DSCN0408.jpg,,CENTRO,0.334,0.363,0.33,
91,CAPRI,-33.015696,-71.556613,SAN MARTIN,563,Viña del Mar,8,1.19757125672473,3.12316237677036,/data/tools/geoexplorer/Chile-NIST/general_drawings/91/9/sixth_story_plan.pdf,/data/tools/geoexplorer/Chile-NIST/photos/Maule.Chile.2010/91/4/andres_lepage_DSCN0575.jpg,/data/tools/geoexplorer/Chile-NIST/photos/Maule.Chile.2010/91/5/santiago_pujol_IMG_0917.JPG,CENTRO,0.334,0.363,0.33,
102,VERONA,-33.014217,-71.554532,SAN MARTIN,734,Viña del Mar,8,1.28055280598076,3.37733361383754,,/data/tools/geoexplorer/Chile-NIST/photos/Maule.Chile.2010/102/40/jon_heintz_DSC06001.JPG,,CENTRO,0.334,0.363,0.33,
179,Condominio Alto Rio,-36.827949,-73.061822,Arturo Prat,776,Concepcion,25,1.20363834359778,,"/data/tools/geoexplorer/Chile-NIST/general_drawings/179/43/PL-22-ELEV-5 (ARdocumentation, ARdrawings, ARdeveloper, ARstructural).dwg\n/data/tools/geoexplorer/Chile-NIST/general_drawings/179/43/PL-23-ELEV-8 (ARdocumentation, ARdrawings, ARdeveloper, ARstructural).dwg\n/data/tools/geoexplorer/Chile-NIST/general_drawings/179/43/PL-24-ELEV-11 (ARdocumentation, ARdrawings, ARdeveloper, ARstructural).dwg\n/data/tools/geoexplorer/Chile-NIST/general_drawings/179/43/PL-25-ELEV-13 (ARdocumentation, ARdrawings, ARdeveloper, ARstructural).dwg\n/data/tools/geoexplorer/Chile-NIST/general_drawings/179/43/PL-26-ELEV-4 (ARdocumentation, ARdrawings, ARdeveloper, ARstructural).dwg\n/data/tools/geoexplorer/Chile-NIST/general_drawings/179/43/PL-27-ELEV-17 (ARdocumentation, ARdrawings, ARdeveloper, ARstructural).dwg\n/data/tools/geoexplorer/Chile-NIST/general_drawings/179/43/PL-28-ELEV-20 (ARdocumentation, ARdrawings, ARdeveloper, ARstructural).dwg\n/data/tools/geoexplorer/Chile-NIST/general_drawings/179/43/PL-29-ELEV-24 (ARdocumentation, ARdrawings, ARdeveloper, ARstructural).dwg\n/data/tools/geoexplorer/Chile-NIST/general_drawings/179/43/PL-30-ELEV-I (ARdocumentation, ARdrawings, ARdeveloper, ARstructural).dwg\n/data/tools/geoexplorer/Chile-NIST/general_drawings/179/43/PL-31-ELEV-A (ARdocumentation, ARdrawings, ARdeveloper, ARstructural).dwg\n/data/tools/geoexplorer/Chile-NIST/general_drawings/179/43/PL-32-ELEV-E-D (ARdocumentation, ARdrawings, ARdeveloper, ARstructural).dwg\n/data/tools/geoexplorer/Chile-NIST/general_drawings/179/43/PL-33-ELEV-C (ARdocumentation, ARdrawings, ARdeveloper, ARstructural).dwg\n/data/tools/geoexplorer/Chile-NIST/general_drawings/179/43/PL-ESC-A (ARdocumentation, ARdrawings, ARdeveloper, ARstructural).dwg\n/data/tools/geoexplorer/Chile-NIST/general_drawings/179/43/PL-ESC-B (ARdocumentation, ARdrawings, ARdeveloper, ARstructural).dwg\n/data/tools/geoexplorer/Chile-NIST/general_drawings/179/43/PL-ESTR-12P-08 (ARdocumentation, ARdrawings, ARdeveloper, ARstructural).dwg\n/data/tools/geoexplorer/Chile-NIST/general_drawings/179/43/PL-ESTR-13P-09 (ARdocumentation, ARdrawings, ARdeveloper, ARstructural).dwg\n/data/tools/geoexplorer/Chile-NIST/general_drawings/179/43/PL-ESTR-14P-10 (ARdocumentation, ARdrawings, ARdeveloper, ARstructural).dwg\n/data/tools/geoexplorer/Chile-NIST/general_drawings/179/43/PL-ESTR-15P-11 (ARdocumentation, ARdrawings, ARdeveloper, ARstructural).dwg\n/data/tools/geoexplorer/Chile-NIST/general_drawings/179/43/PL-ESTR-1P-05 (ARdocumentation, ARdrawings, ARdeveloper, ARstructural).dwg\n/data/tools/geoexplorer/Chile-NIST/general_drawings/179/43/PL-ESTR-2P-06 (ARdocumentation, ARdrawings, ARdeveloper, ARstructural).dwg\n/data/tools/geoexplorer/Chile-NIST/general_drawings/179/43/PL-ESTR-3P@11P-07 (ARdocumentation, ARdrawings, ARdeveloper, ARstructural).dwg\n/data/tools/geoexplorer/Chile-NIST/general_drawings/179/43/PL-ESTR-MAQUI-11 (ARdocumentation, ARdrawings, ARdeveloper, ARstructural).dwg\n/data/tools/geoexplorer/Chile-NIST/general_drawings/179/43/PL-ESTR-SUB-1-04 (ARdocumentation, ARdrawings, ARdeveloper, ARstructural).dwg\n/data/tools/geoexplorer/Chile-NIST/general_drawings/179/43/PL-ESTR-SUB-2-03 (ARdocumentation, ARdrawings, ARdeveloper, ARstructural).dwg\n/data/tools/geoexplorer/Chile-NIST/general_drawings/179/43/PL-FUNDACION (ARdocumentation, ARdrawings, ARdeveloper, ARstructural).dwg\n/data/tools/geoexplorer/Chile-NIST/general_drawings/179/43/PL-LOSA-FUNDACION (ARdocumentation, ARdrawings, ARdeveloper, ARstructural).DWG\n/data/tools/geoexplorer/Chile-NIST/general_drawings/179/43/drawingAltoRio (ARdocumentation, ARdrawings, ARasBuilt (incomplete).pdf\n/data/tools/geoexplorer/Chile-NIST/general_drawings/179/43/README.TXT",/data/tools/geoexplorer/Chile-NIST/photos/Maule.Chile.2010/179/3/gabriel_alarcon_02212009210.jpg,/data/tools/geoexplorer/Chile-NIST/photos/Maule.Chile.2010/179/6/patricio_bonelli_IMG_3673.JPG,COLEGIO INMACULADA,0.402,,0.68,
180,Edificio de Ministerio de Obras Publica,-36.830708,-73.058743,Av. Arturo Prat,501,Concepcion,25,0.973648837535404,,,/data/tools/geoexplorer/Chile-NIST/photos/Maule.Chile.2010/180/1/jay_harris_Edificio de Ministerio de Obras Publica - 0001 - JLH.JPG,,COLEGIO INMACULADA,0.402,,0.68,
