Structure_ID,Building_Name,latitude,longitude,Street_Name,Street__Number,City,Closest__Station_ID,Distance_To__Closest__Station_km_For_Maule_Chile_2010,Distance_To__Closest__Station_km_For_Valparaiso_Chile_1985,General___Drawings,Main__Building__Photo,Example_of__Severe_Damage,Closest__Station_Name,Max__Hor__PGA__g__For_Maule_Chile_2010,Max__Hor__PGA__g__For_Valparaiso_Chile_1985,Max__Hor__PGV__m_s__For_Maule_Chile_2010,Max__Hor__PGV__m_s__For_Valparaiso_Chile_1985
205,Centro Mayor,-36.822667,-73.044833,Freire,1165,Concepcion,25,0.678373892526455,,"/data/tools/geoexplorer/Chile-NIST/general_drawings/205/43/A01 (CMdocumentation, CMdrawings, CMmunicipalPermit).PDF\n/data/tools/geoexplorer/Chile-NIST/general_drawings/205/43/A02 (CMdocumentation, CMdrawings, CMmunicipalPermit).PDF\n/data/tools/geoexplorer/Chile-NIST/general_drawings/205/43/A03 (CMdocumentation, CMdrawings, CMmunicipalPermit).PDF\n/data/tools/geoexplorer/Chile-NIST/general_drawings/205/43/A04 (CMdocumentation, CMdrawings, CMmunicipalPermit).PDF\n/data/tools/geoexplorer/Chile-NIST/general_drawings/205/43/A05 (CMdocumentation, CMdrawings, CMmunicipalPermit).PDF\n/data/tools/geoexplorer/Chile-NIST/general_drawings/205/43/A06 (CMdocumentation, CMdrawings, CMmunicipalPermit).PDF\n/data/tools/geoexplorer/Chile-NIST/general_drawings/205/43/A07 (CMdocumentation, CMdrawings, CMmunicipalPermit).PDF\n/data/tools/geoexplorer/Chile-NIST/general_drawings/205/43/A08 (CMdocumentation, CMdrawings, CMmunicipalPermit).PDF\n/data/tools/geoexplorer/Chile-NIST/general_drawings/205/43/A09 (CMdocumentation, CMdrawings, CMmunicipalPermit).PDF\n/data/tools/geoexplorer/Chile-NIST/general_drawings/205/43/A10 (CMdocumentation, CMdrawings, CMmunicipalPermit).PDF\n/data/tools/geoexplorer/Chile-NIST/general_drawings/205/43/A11 (CMdocumentation, CMdrawings, CMmunicipalPermit).PDF\n/data/tools/geoexplorer/Chile-NIST/general_drawings/205/43/A12 (CMdocumentation, CMdrawings, CMmunicipalPermit).PDF\n/data/tools/geoexplorer/Chile-NIST/general_drawings/205/43/A13 (CMdocumentation, CMdrawings, CMmunicipalPermit).PDF\n/data/tools/geoexplorer/Chile-NIST/general_drawings/205/43/C - EFR 730 - 001 rev2 (CMdocumentation, CMdrawings, CMdeveloper, CMstructural).dwg\n/data/tools/geoexplorer/Chile-NIST/general_drawings/205/43/C - EFR 730 - 002 rev3 (CMdocumentation, CMdrawings, CMdeveloper, CMstructural).dwg\n/data/tools/geoexplorer/Chile-NIST/general_drawings/205/43/C - EFR 730 - 003 rev2 (CMdocumentation, CMdrawings, CMdeveloper, CMstructural).dwg\n/data/tools/geoexplorer/Chile-NIST/general_drawings/205/43/C - EFR 730 - 004 rev3 (CMdocumentation, CMdrawings, CMdeveloper, CMstructural).dwg\n/data/tools/geoexplorer/Chile-NIST/general_drawings/205/43/C - EFR 730 - 005 rev3 (CMdocumentation, CMdrawings, CMdeveloper, CMstructural).dwg\n/data/tools/geoexplorer/Chile-NIST/general_drawings/205/43/C - EFR 730 - 006 rev2 (CMdocumentation, CMdrawings, CMdeveloper, CMstructural).dwg\n/data/tools/geoexplorer/Chile-NIST/general_drawings/205/43/C - EFR 730 - 007 rev2 (CMdocumentation, CMdrawings, CMdeveloper, CMstructural).dwg\n/data/tools/geoexplorer/Chile-NIST/general_drawings/205/43/C - EFR 730 - 008 rev2 (CMdocumentation, CMdrawings, CMdeveloper, CMstructural).dwg\n/data/tools/geoexplorer/Chile-NIST/general_drawings/205/43/C - EFR 730 - 009 rev1 (CMdocumentation, CMdrawings, CMdeveloper, CMstructural).dwg\n/data/tools/geoexplorer/Chile-NIST/general_drawings/205/43/C - EFR 730 - 010 rev1 (CMdocumentation, CMdrawings, CMdeveloper, CMstructural).dwg\n/data/tools/geoexplorer/Chile-NIST/general_drawings/205/43/C - EFR 730 - 011 rev1 (CMdocumentation, CMdrawings, CMdeveloper, CMstructural).dwg\n/data/tools/geoexplorer/Chile-NIST/general_drawings/205/43/C - EFR 730 - 012 rev2 (CMdocumentation, CMdrawings, CMdeveloper, CMstructural).dwg\n/data/tools/geoexplorer/Chile-NIST/general_drawings/205/43/C - EFR 730 - 013 rev2 (CMdocumentation, CMdrawings, CMdeveloper, CMstructural).dwg\n/data/tools/geoexplorer/Chile-NIST/general_drawings/205/43/C - EFR 730 - 014 rev1 (CMdocumentation, CMdrawings, CMdeveloper, CMstructural).dwg\n/data/tools/geoexplorer/Chile-NIST/general_drawings/205/43/C - EFR 730 - 015 rev2 (CMdocumentation, CMdrawings, CMdeveloper, CMstructural).dwg\n/data/tools/geoexplorer/Chile-NIST/general_drawings/205/43/C - EFR 730 - 016 rev1 (CMdocumentation, CMdrawings, CMdeveloper, CMstructural).dwg\n/data/tools/geoexplorer/Chile-NIST/general_drawings/205/43/C - EFR 730 - 017 rev1 (CMdocumentation, CMdrawings, CMdeveloper, CMstructural).dwg\n/data/tools/geoexplorer/Chile-NIST/general_drawings/205/43/C - EFR 730 - 018 rev1 (CMdocumentation, CMdrawings, CMdeveloper, CMstructural).dwg\n/data/tools/geoexplorer/Chile-NIST/general_drawings/205/43/C - EFR 730 - 019 rev1 (CMdocumentation, CMdrawings, CMdeveloper, CMstructural).dwg\n/data/tools/geoexplorer/Chile-NIST/general_drawings/205/43/C - EFR 730 - 020 rev2 (CMdocumentation, CMdrawings, CMdeveloper, CMstructural).dwg\n/data/tools/geoexplorer/Chile-NIST/general_drawings/205/43/C - EFR 730 - 021 rev3 (CMdocumentation, CMdrawings, CMdeveloper, CMstructural).dwg\n/data/tools/geoexplorer/Chile-NIST/general_drawings/205/43/C - EFR 730 - 022 rev2 (CMdocumentation, CMdrawings, CMdeveloper, CMstructural).dwg\n/data/tools/geoexplorer/Chile-NIST/general_drawings/205/43/C - EFR 730 - 023 rev2 (CMdocumentation, CMdrawings, CMdeveloper, CMstructural).dwg\n/data/tools/geoexplorer/Chile-NIST/general_drawings/205/43/C - EFR 730 - 024 rev1 (CMdocumentation, CMdrawings, CMdeveloper, CMstructural).dwg\n/data/tools/geoexplorer/Chile-NIST/general_drawings/205/43/C - EFR 730 - 025 rev1 (CMdocumentation, CMdrawings, CMdeveloper, CMstructural).dwg\n/data/tools/geoexplorer/Chile-NIST/general_drawings/205/43/C - EFR 730 - 026 rev1 (CMdocumentation, CMdrawings, CMdeveloper, CMstructural).dwg\n/data/tools/geoexplorer/Chile-NIST/general_drawings/205/43/C - EFR 730 - 027 rev2 (CMdocumentation, CMdrawings, CMdeveloper, CMstructural).dwg\n/data/tools/geoexplorer/Chile-NIST/general_drawings/205/43/C - EFR 730 - 028 rev1 (CMdocumentation, CMdrawings, CMdeveloper, CMstructural).dwg\n/data/tools/geoexplorer/Chile-NIST/general_drawings/205/43/C - EFR 730 - 029 rev2 (CMdocumentation, CMdrawings, CMdeveloper, CMstructural).dwg\n/data/tools/geoexplorer/Chile-NIST/general_drawings/205/43/C - EFR 730 - 030 rev3 (CMdocumentation, CMdrawings, CMdeveloper, CMstructural).dwg\n/data/tools/geoexplorer/Chile-NIST/general_drawings/205/43/C - EFR 730 - 031 rev1 (CMdocumentation, CMdrawings, CMdeveloper, CMstructural).dwg\n/data/tools/geoexplorer/Chile-NIST/general_drawings/205/43/C - EFR 730 - 032 rev1 (CMdocumentation, CMdrawings, CMdeveloper, CMstructural).dwg\n/data/tools/geoexplorer/Chile-NIST/general_drawings/205/43/C - EFR 730 - 033-0(piso 18) (CMdocumentation, CMdrawings, CMdeveloper, CMstructural).dwg\n/data/tools/geoexplorer/Chile-NIST/general_drawings/205/43/C - EFR 730 - 034-0 (piso18) (CMdocumentation, CMdrawings, CMdeveloper, CMstructural).dwg\n/data/tools/geoexplorer/Chile-NIST/general_drawings/205/43/C - EFR 730 - 035-0 (CMdocumentation, CMdrawings, CMdeveloper, CMstructural).dwg\n/data/tools/geoexplorer/Chile-NIST/general_drawings/205/43/C - EFR 730 - 036-0 (CMdocumentation, CMdrawings, CMdeveloper, CMstructural).dwg\n/data/tools/geoexplorer/Chile-NIST/general_drawings/205/43/C - EFR 730 - 037-0 (CMdocumentation, CMdrawings, CMdeveloper, CMstructural).dwg\n/data/tools/geoexplorer/Chile-NIST/general_drawings/205/43/C - EFR 730 - 038-0 (CMdocumentation, CMdrawings, CMdeveloper, CMstructural).dwg\n/data/tools/geoexplorer/Chile-NIST/general_drawings/205/43/C - EFR 730 - 039-1 (CMdocumentation, CMdrawings, CMdeveloper, CMstructural).dwg\n/data/tools/geoexplorer/Chile-NIST/general_drawings/205/43/C - EFR 730 - 040-1 (CMdocumentation, CMdrawings, CMdeveloper, CMstructural).dwg\n/data/tools/geoexplorer/Chile-NIST/general_drawings/205/43/C - EFR 730 - 041-1 (CMdocumentation, CMdrawings, CMdeveloper, CMstructural).dwg\n/data/tools/geoexplorer/Chile-NIST/general_drawings/205/43/C - EFR 730 - 042-0 (CMdocumentation, CMdrawings, CMdeveloper, CMstructural).dwg\n/data/tools/geoexplorer/Chile-NIST/general_drawings/205/43/C - EFR 730 - 043-0 (CMdocumentation, CMdrawings, CMdeveloper, CMstructural).dwg\n/data/tools/geoexplorer/Chile-NIST/general_drawings/205/43/C - EFR 730 - 044-0 (CMdocumentation, CMdrawings, CMdeveloper, CMstructural).dwg\n/data/tools/geoexplorer/Chile-NIST/general_drawings/205/43/C - EFR 730 - 442-0 (CMdocumentation, CMdrawings, CMdeveloper, CMstructural).dwg\n/data/tools/geoexplorer/Chile-NIST/general_drawings/205/43/C - EFR 730 - anexo 1-A (CMdocumentation, CMdrawings, CMdeveloper, CMstructural).dwg\n/data/tools/geoexplorer/Chile-NIST/general_drawings/205/43/C - EFR 730 - anexo 2 (CMdocumentation, CMdrawings, CMdeveloper, CMstructural).dwg\n/data/tools/geoexplorer/Chile-NIST/general_drawings/205/43/C - EFR 730 - anexo 3 (CMdocumentation, CMdrawings, CMdeveloper, CMstructural).DWG\n/data/tools/geoexplorer/Chile-NIST/general_drawings/205/43/C - EFR 730 - anexo 4 Modif (CMdocumentation, CMdrawings, CMdeveloper, CMstructural).dwg\n/data/tools/geoexplorer/Chile-NIST/general_drawings/205/43/Emplazamiento Centro Mayor (CMdocumentation, CMdrawings, CMdeveloper, CMsiteLayout).dwg\n/data/tools/geoexplorer/Chile-NIST/general_drawings/205/43/Emplazamiento Centro Mayor2 (CMdocumentation, CMdrawings, CMdeveloper, CMsiteLayout).dwg\n/data/tools/geoexplorer/Chile-NIST/general_drawings/205/43/Emplazamiento Centro Mayor3 (CMdocumentation, CMdrawings, CMdeveloper, CMsiteLayout).dwg\n/data/tools/geoexplorer/Chile-NIST/general_drawings/205/43/FREIRE PROP.LADO NORTE (CMdocumentation, CMdrawings, CMdeveloper, CMsiteLayout).DWG\n/data/tools/geoexplorer/Chile-NIST/general_drawings/205/43/FT C. M.- A (CMdocumentation, CMpostEarthquake, PuntalMetállico).dwg\n/data/tools/geoexplorer/Chile-NIST/general_drawings/205/43/FT-CM-002-A (CMdocumentation, CMpostEarthquake, PuntalMetállico).dwg\n/data/tools/geoexplorer/Chile-NIST/general_drawings/205/43/Lam 1 al 3 (CMdocumentation, CMdrawings, CMdeveloper, CMarchitectural).DWG\n/data/tools/geoexplorer/Chile-NIST/general_drawings/205/43/Lam 4 y 5 (CMdocumentation, CMdrawings, CMdeveloper, CMarchitectural).DWG\n/data/tools/geoexplorer/Chile-NIST/general_drawings/205/43/Lamina 6 (CMdocumentation, CMdrawings, CMdeveloper, CMarchitectural).dwg\n/data/tools/geoexplorer/Chile-NIST/general_drawings/205/43/Lamina 7 (CMdocumentation, CMdrawings, CMdeveloper, CMarchitectural).DWG\n/data/tools/geoexplorer/Chile-NIST/general_drawings/205/43/Laminas 8 y 9 (CMdocumentation, CMdrawings, CMdeveloper, CMarchitectural).DWG\n/data/tools/geoexplorer/Chile-NIST/general_drawings/205/43/Laminas detalles (CMdocumentation, CMdrawings, CMdeveloper, CMarchitectural).dwg\n/data/tools/geoexplorer/Chile-NIST/general_drawings/205/43/MUROS FREIRE 1165 (CMdocumentation, CMdrawings, CMdeveloper, CMsiteLayout).DWG\n/data/tools/geoexplorer/Chile-NIST/general_drawings/205/43/Refuerzo  C.M.-  002 (CMdocumentation, CMpostEarthquake, PuntalMetállico).dwg\n/data/tools/geoexplorer/Chile-NIST/general_drawings/205/43/Refuerzo- C. M.- 1 (CMdocumentation, CMpostEarthquake, PuntalMetállico).dwg\n/data/tools/geoexplorer/Chile-NIST/general_drawings/205/43/README.txt",/data/tools/geoexplorer/Chile-NIST/photos/Maule.Chile.2010/205/19/john_wallace_P3172337.JPG,/data/tools/geoexplorer/Chile-NIST/photos/Maule.Chile.2010/205/6/patricio_bonelli_IMG_3818.JPG,COLEGIO INMACULADA,0.402,,0.68,
206,Edificio Concepto & Estilo Concepcion,-36.822137,-73.043744,Freire,1255,Concepcion,25,0.777231905859137,,,/data/tools/geoexplorer/Chile-NIST/photos/Maule.Chile.2010/206/5/santiago_pujol_IMG_0363.JPG,,COLEGIO INMACULADA,0.402,,0.68,
207,Pedro de Valdivia,-36.85308,-73.049865,Pedro de Valdivia,,Concepcion,25,2.78113851314553,,,/data/tools/geoexplorer/Chile-NIST/photos/Maule.Chile.2010/207/32/latbsdc_PDV-1.jpg,/data/tools/geoexplorer/Chile-NIST/photos/Maule.Chile.2010/207/32/latbsdc_PDV-53.jpg,COLEGIO INMACULADA,0.402,,0.68,
208,Edificio Geocentro Obispo Salas,-36.829701,-73.056004,Obispo Hipolito Salas,445,Concepcion,25,0.708417250101998,,,/data/tools/geoexplorer/Chile-NIST/photos/Maule.Chile.2010/208/30/farzad_naeim_Salas-2.jpg,/data/tools/geoexplorer/Chile-NIST/photos/Maule.Chile.2010/208/6/patricio_bonelli_IMG_3804.JPG,COLEGIO INMACULADA,0.402,,0.68,
209,Edificio Tucapel,-36.825078,-73.045557,Barros Arana,1037,Concepcion,25,0.41535932647049,,,/data/tools/geoexplorer/Chile-NIST/photos/Maule.Chile.2010/209/5/santiago_pujol_IMG_0376.JPG,,COLEGIO INMACULADA,0.402,,0.68,
210,Don Luis,-33.503237,-70.753125,Luis Gandarillas,360,Santiago,1,1.84371570352583,,,/data/tools/geoexplorer/Chile-NIST/photos/Maule.Chile.2010/210/22/guillermo_franco_IMG_3114.JPG,/data/tools/geoexplorer/Chile-NIST/photos/Maule.Chile.2010/210/5/santiago_pujol_IMG_1041.JPG,MAIPU RM,0.561,,0.44,
211,Emerald,-33.455186,-70.600541,Av Irarrazaval,2941,Santiago,33,4.24725944578974,,,/data/tools/geoexplorer/Chile-NIST/photos/Maule.Chile.2010/211/5/santiago_pujol_IMG_1142.JPG,/data/tools/geoexplorer/Chile-NIST/photos/Maule.Chile.2010/211/5/santiago_pujol_IMG_1117.JPG,CERRO SANTA LUCIA,0.338,,0.451,
212,Conservador de Bienes Raices,-33.014033,-71.550671,9 Norte,623,Viña del Mar,8,1.25289096899006,,,/data/tools/geoexplorer/Chile-NIST/photos/Maule.Chile.2010/212/3/gabriel_alarcon_DSC01866.JPG,,CENTRO,0.334,,0.33,
213,Emporium,-33.013608,-71.551304,9 Norte,555,Viña del Mar,8,1.30094002171022,,,/data/tools/geoexplorer/Chile-NIST/photos/Maule.Chile.2010/213/8/gilberto_leiva_137_2104.JPG,/data/tools/geoexplorer/Chile-NIST/photos/Maule.Chile.2010/213/4/andres_lepage_DSCN0063.jpg,CENTRO,0.334,,0.33,
214,Edificio de Oficinas Libertad,-33.014609,-71.549464,Av Libertad,770,Viña del Mar,8,1.19529297793255,,,/data/tools/geoexplorer/Chile-NIST/photos/Maule.Chile.2010/214/4/andres_lepage_DSCN0054.jpg,/data/tools/geoexplorer/Chile-NIST/photos/Maule.Chile.2010/214/3/gabriel_alarcon_DSC02185.JPG,CENTRO,0.334,,0.33,
215,9 Norte,-33.014168,-71.548903,9 Norte,,Viña del Mar,8,1.25039394164132,,,/data/tools/geoexplorer/Chile-NIST/photos/Maule.Chile.2010/215/8/gilberto_leiva_137_2097.JPG,,CENTRO,0.334,,0.33,
216,Montebianco,-33.018758,-71.551878,1 Poniente,350,Viña del Mar,8,0.73434739904865,,,/data/tools/geoexplorer/Chile-NIST/photos/Maule.Chile.2010/216/26/joe_maffei_IMG_8088.JPG,/data/tools/geoexplorer/Chile-NIST/photos/Maule.Chile.2010/216/6/patricio_bonelli_IMG_3345.JPG,CENTRO,0.334,,0.33,
217,Parque Montemar,-32.935614,-71.547205,Av Costa de Montemar,624,Concon,8,9.97826431240428,,"/data/tools/geoexplorer/Chile-NIST/general_drawings/217/6/LAM 00 (NOTAS GENERALES) (general notes; in Spanish).dwg\n/data/tools/geoexplorer/Chile-NIST/general_drawings/217/6/LAM_10_(PL_PISO 3º) (slab plan floor 3; in Spanish).dwg\n/data/tools/geoexplorer/Chile-NIST/general_drawings/217/6/LAM_11_(PE_PISO 4º) (struct plan floor 4; in Spanish).dwg\n/data/tools/geoexplorer/Chile-NIST/general_drawings/217/6/LAM_12_(PL_PISO 4º) (slab plan floor 4; in Spanish).dwg\n/data/tools/geoexplorer/Chile-NIST/general_drawings/217/6/LAM_13_(PE_PISOS 6º a 10º) (struct plan floors 5 to 10; in Spanish).dwg\n/data/tools/geoexplorer/Chile-NIST/general_drawings/217/6/LAM_14_(PE_PISOS 5º a 25º) (slab plan floors 5 to 25; in Spanish).dwg\n/data/tools/geoexplorer/Chile-NIST/general_drawings/217/6/LAM_15_(PE_PISOS 5º a 25º) (repeat of LAM_14, LAM_15 missing; in Spanish).dwg\n/data/tools/geoexplorer/Chile-NIST/general_drawings/217/6/LAM_16_(PE_PISO 26º) (struct plan floor 26; in Spanish).dwg\n/data/tools/geoexplorer/Chile-NIST/general_drawings/217/6/LAM_17_(PL_PISO 26º) (slab plan floor 26; in Spanish).dwg\n/data/tools/geoexplorer/Chile-NIST/general_drawings/217/6/LAM_18_(PE_SALA MAQUINAS) (struct plan HVAC floor; in Spanish).dwg\n/data/tools/geoexplorer/Chile-NIST/general_drawings/217/6/LAM_19_(PL_SALA MAQUINAS) (slab plan HVAC floor; in Spanish).dwg\n/data/tools/geoexplorer/Chile-NIST/general_drawings/217/6/LAM_1_(FUNDACION) (struct plan foundation; in Spanish).dwg\n/data/tools/geoexplorer/Chile-NIST/general_drawings/217/6/LAM_20 ( DETALLES ESCALERAS) (details of stairs; in Spanish).dwg\n/data/tools/geoexplorer/Chile-NIST/general_drawings/217/6/LAM_21(EJE A) (elev, eje=axis; in Spanish).dwg\n/data/tools/geoexplorer/Chile-NIST/general_drawings/217/6/LAM_22(EJE B) (elev, eje=axis; in Spanish).dwg\n/data/tools/geoexplorer/Chile-NIST/general_drawings/217/6/LAM_23(EJE C) (elev, eje=axis; in Spanish).dwg\n/data/tools/geoexplorer/Chile-NIST/general_drawings/217/6/LAM_24(EJE D) (elev, eje=axis; in Spanish).dwg\n/data/tools/geoexplorer/Chile-NIST/general_drawings/217/6/LAM_25(EJES E-F) (elev, ejes=axes; in Spanish).dwg\n/data/tools/geoexplorer/Chile-NIST/general_drawings/217/6/LAM_26(EJES G-H) (elev, ejes=axes; in Spanish).dwg\n/data/tools/geoexplorer/Chile-NIST/general_drawings/217/6/LAM_27(EJES I-J) (elev, ejes=axes; in Spanish).dwg\n/data/tools/geoexplorer/Chile-NIST/general_drawings/217/6/LAM_28(EJES K-B'') (elev, ejes=axes; in Spanish).dwg\n/data/tools/geoexplorer/Chile-NIST/general_drawings/217/6/LAM_29(EJES 1-2-2a17b-3-11-16) (elev, ejes=axes; in Spanish).dwg\n/data/tools/geoexplorer/Chile-NIST/general_drawings/217/6/LAM_2_PL FUNDACION) (mat foundation plan; in Spanish).dwg\n/data/tools/geoexplorer/Chile-NIST/general_drawings/217/6/LAM_30(EJES 4-5 y DEST.VIGAS 1-2-3-4) (elev, ejes=axes; in Spanish).dwg\n/data/tools/geoexplorer/Chile-NIST/general_drawings/217/6/LAM_31(EJES 8-15-19) (elev, ejes=axes; in Spanish).dwg\n/data/tools/geoexplorer/Chile-NIST/general_drawings/217/6/LAM_32(EJES 6-14-7-13-9-12) (elev, ejes=axes; in Spanish).dwg\n/data/tools/geoexplorer/Chile-NIST/general_drawings/217/6/LAM_33(EJES 10-17-17a-18) (elev, ejes=axes; in Spanish).dwg\n/data/tools/geoexplorer/Chile-NIST/general_drawings/217/6/LAM_3_(PE_SUBTERRANEO) (struct plan basement; in Spanish).dwg\n/data/tools/geoexplorer/Chile-NIST/general_drawings/217/6/LAM_4_(PL_SUBTERRANEO) (slab plan basement; in Spanish).dwg\n/data/tools/geoexplorer/Chile-NIST/general_drawings/217/6/LAM_5_(PE_PISO 1º) (struct plan floor 1; in Spanish).dwg\n/data/tools/geoexplorer/Chile-NIST/general_drawings/217/6/LAM_6_(PL_PISO 1º) (slab plan floor 1; in Spanish).dwg\n/data/tools/geoexplorer/Chile-NIST/general_drawings/217/6/LAM_7_(PE_PISO 2º) (struct plan floor 2; in Spanish).dwg\n/data/tools/geoexplorer/Chile-NIST/general_drawings/217/6/LAM_8_(PL_PISO 2º) (slab plan floor 2; in Spanish).dwg\n/data/tools/geoexplorer/Chile-NIST/general_drawings/217/6/LAM_9_(PE_PISO 3º) (struct plan floor 3; in Spanish).dwg",/data/tools/geoexplorer/Chile-NIST/photos/Maule.Chile.2010/217/6/patricio_bonelli_IMG_3886.JPG,,CENTRO,0.334,,0.33,
218,Antigona,-33.020485,-71.544091,5 Oriente,260,Viña del Mar,8,0.82334478451303,,,/data/tools/geoexplorer/Chile-NIST/photos/Maule.Chile.2010/218/11/alvaro_celestino_IMG_3984.JPG,/data/tools/geoexplorer/Chile-NIST/photos/Maule.Chile.2010/218/8/gilberto_leiva_DSCF1750.JPG,CENTRO,0.334,,0.33,
219,Piedra Azul,-33.021005,-71.552733,1 Poniente,123,Viña del Mar,8,0.510453429226718,,,/data/tools/geoexplorer/Chile-NIST/photos/Maule.Chile.2010/219/8/gilberto_leiva_137_2066.JPG,,CENTRO,0.334,,0.33,
220,Rio Imperial,-33.015547,-71.552358,2 Poniente,648,Viña del Mar,8,1.09416909230633,,,/data/tools/geoexplorer/Chile-NIST/photos/Maule.Chile.2010/220/26/joe_maffei_IMG_7640.JPG,/data/tools/geoexplorer/Chile-NIST/photos/Maule.Chile.2010/220/6/patricio_bonelli_IMG_3795.JPG,CENTRO,0.334,,0.33,
