Structure_ID,Building_Name,latitude,longitude,Street_Name,Street__Number,City,Closest__Station_ID,Distance_To__Closest__Station_km_For_Maule_Chile_2010,Distance_To__Closest__Station_km_For_Valparaiso_Chile_1985,General___Drawings,Main__Building__Photo,Example_of__Severe_Damage,Closest__Station_Name,Max__Hor__PGA__g__For_Maule_Chile_2010,Max__Hor__PGA__g__For_Valparaiso_Chile_1985,Max__Hor__PGV__m_s__For_Maule_Chile_2010,Max__Hor__PGV__m_s__For_Valparaiso_Chile_1985
221,Rio Petrohue,-33.015893,-71.551811,7 Norte,585,Viña del Mar,8,1.05024912532992,,/data/tools/geoexplorer/Chile-NIST/general_drawings/221/6/PETROHUE ELEVACIONES EJES.pdf\n/data/tools/geoexplorer/Chile-NIST/general_drawings/221/6/PETROHUE PLANTAS.pdf\n/data/tools/geoexplorer/Chile-NIST/general_drawings/221/6/scan003595.pdf\n/data/tools/geoexplorer/Chile-NIST/general_drawings/221/6/scan003596.pdf\n/data/tools/geoexplorer/Chile-NIST/general_drawings/221/6/scan003597.pdf\n/data/tools/geoexplorer/Chile-NIST/general_drawings/221/6/scan003598.pdf\n/data/tools/geoexplorer/Chile-NIST/general_drawings/221/6/scan003599.pdf\n/data/tools/geoexplorer/Chile-NIST/general_drawings/221/6/scan003600.pdf\n/data/tools/geoexplorer/Chile-NIST/general_drawings/221/6/scan003601.pdf\n/data/tools/geoexplorer/Chile-NIST/general_drawings/221/6/scan003602.pdf\n/data/tools/geoexplorer/Chile-NIST/general_drawings/221/6/scan003603.pdf\n/data/tools/geoexplorer/Chile-NIST/general_drawings/221/6/scan003604.pdf\n/data/tools/geoexplorer/Chile-NIST/general_drawings/221/6/scan003605.pdf\n/data/tools/geoexplorer/Chile-NIST/general_drawings/221/6/scan003606.pdf\n/data/tools/geoexplorer/Chile-NIST/general_drawings/221/6/scan003607.pdf\n/data/tools/geoexplorer/Chile-NIST/general_drawings/221/6/scan003608.pdf\n/data/tools/geoexplorer/Chile-NIST/general_drawings/221/6/scan003609.pdf\n/data/tools/geoexplorer/Chile-NIST/general_drawings/221/6/scan003610.pdf\n/data/tools/geoexplorer/Chile-NIST/general_drawings/221/6/scan003611.pdf\n/data/tools/geoexplorer/Chile-NIST/general_drawings/221/6/scan003612.pdf\n/data/tools/geoexplorer/Chile-NIST/general_drawings/221/6/scan003613.pdf\n/data/tools/geoexplorer/Chile-NIST/general_drawings/221/6/scan003614.pdf\n/data/tools/geoexplorer/Chile-NIST/general_drawings/221/6/scan003615.pdf\n/data/tools/geoexplorer/Chile-NIST/general_drawings/221/6/scan003616.pdf\n/data/tools/geoexplorer/Chile-NIST/general_drawings/221/6/scan003617.pdf\n/data/tools/geoexplorer/Chile-NIST/general_drawings/221/6/scan003618.pdf\n/data/tools/geoexplorer/Chile-NIST/general_drawings/221/6/scan003619.pdf\n/data/tools/geoexplorer/Chile-NIST/general_drawings/221/6/scan003620.pdf\n/data/tools/geoexplorer/Chile-NIST/general_drawings/221/6/README.TXT,/data/tools/geoexplorer/Chile-NIST/photos/Maule.Chile.2010/221/31/marshall_lew_RioPet-101.jpg,/data/tools/geoexplorer/Chile-NIST/photos/Maule.Chile.2010/221/3/gabriel_alarcon_DSC03069.JPG,CENTRO,0.334,,0.33,
222,2 Norte,-33.021264,-71.551628,2 Norte,,Viña del Mar,8,0.45537356149143,,,/data/tools/geoexplorer/Chile-NIST/photos/Maule.Chile.2010/222/5/santiago_pujol_IMG_0022.JPG,,CENTRO,0.334,,0.33,
223,Edificio Parque Araucano,-33.405526,-70.576066,Pdte Riesco,5323-5433,Santiago,10,3.78384075196657,,,/data/tools/geoexplorer/Chile-NIST/photos/Maule.Chile.2010/223/30/farzad_naeim_PA-52.jpg,,CERRO CALAN,0.23,,0.29,
224,Edificio en Providencia,-33.431124,-70.601952,,,Buin,33,3.9311578176358,,,/data/tools/geoexplorer/Chile-NIST/photos/Maule.Chile.2010/224/12/jeffrey_dragovich_Dragovich_0084_a.JPG,/data/tools/geoexplorer/Chile-NIST/photos/Maule.Chile.2010/224/12/jeffrey_dragovich_Dragovich_0067_a.JPG,CERRO SANTA LUCIA,0.338,,0.451,
225,Gymnasium Building,-36.719773,-73.108705,Arturo Prat,,Talcahuano,25,13.1923348610553,,,/data/tools/geoexplorer/Chile-NIST/photos/Maule.Chile.2010/225/31/marshall_lew_TGZ-186.jpg,/data/tools/geoexplorer/Chile-NIST/photos/Maule.Chile.2010/225/21/carlos_sempere_Sempere_6414.jpg,COLEGIO INMACULADA,0.402,,0.68,
226,Barros Arana,-36.828724,-73.055359,Barros Arana,,Concepcion,25,0.63210059444588,,,/data/tools/geoexplorer/Chile-NIST/photos/Maule.Chile.2010/226/13/jack_moehle_IMG_1782.JPG,,COLEGIO INMACULADA,0.402,,0.68,
227,Edificio Olas,-36.85764,-73.150993,Camino Coronel Km 8,,San Pedro de La Paz,9,4.04494283987594,,,/data/tools/geoexplorer/Chile-NIST/photos/Maule.Chile.2010/227/32/latbsdc_Olas-1.jpg,/data/tools/geoexplorer/Chile-NIST/photos/Maule.Chile.2010/227/11/alvaro_celestino_DSC01987.JPG,COLEGIO SAN PEDRO,0.65,,0.447,
228,Plaza Mayor III,-36.817295,-73.053576,Colo Colo,1334,Concepcion,25,1.28998185857603,,,/data/tools/geoexplorer/Chile-NIST/photos/Maule.Chile.2010/228/13/jack_moehle_IMG_1917.JPG,,COLEGIO INMACULADA,0.402,,0.68,
229,Plaza Mayor IV,-36.816782,-73.053982,Colo Colo,1372,Concepcion,25,1.35632866039856,,,/data/tools/geoexplorer/Chile-NIST/photos/Maule.Chile.2010/229/31/marshall_lew_PMC-56.jpg,,COLEGIO INMACULADA,0.402,,0.68,
230,Plaza Mayor I,-36.816503,-73.053274,Castellon,1367,Concepcion,25,1.36341561669094,,,/data/tools/geoexplorer/Chile-NIST/photos/Maule.Chile.2010/230/5/santiago_pujol_IMG_0358.JPG,/data/tools/geoexplorer/Chile-NIST/photos/Maule.Chile.2010/230/13/jack_moehle_IMG_1947.JPG,COLEGIO INMACULADA,0.402,,0.68,
231,Plaza Mayor II,-36.817022,-73.052979,Castellon,1333,Concepcion,25,1.30031990967887,,,/data/tools/geoexplorer/Chile-NIST/photos/Maule.Chile.2010/231/13/jack_moehle_IMG_1928.JPG,,COLEGIO INMACULADA,0.402,,0.68,
232,Hotel Araucano (Galeria Internacional),-36.826678,-73.051624,Barros Arana,,Concepcion,25,0.335456802347158,,,/data/tools/geoexplorer/Chile-NIST/photos/Maule.Chile.2010/232/13/jack_moehle_IMG_1999.JPG,/data/tools/geoexplorer/Chile-NIST/photos/Maule.Chile.2010/232/21/carlos_sempere_Sempere_6272.jpg,COLEGIO INMACULADA,0.402,,0.68,
233,Edificio Rucamanqui,-36.607745,-72.104402,Dieciocho de Septiembre,,Chillan,25,87.6270006806012,,,/data/tools/geoexplorer/Chile-NIST/photos/Maule.Chile.2010/233/13/jack_moehle_IMG_1359.JPG,,COLEGIO INMACULADA,0.402,,0.68,
234,Torre Mayor,-36.602649,-72.102325,Gamero,,Chillan,25,87.9672410496013,,,/data/tools/geoexplorer/Chile-NIST/photos/Maule.Chile.2010/234/13/jack_moehle_IMG_1400.JPG,/data/tools/geoexplorer/Chile-NIST/photos/Maule.Chile.2010/234/21/carlos_sempere_Sempere_5612.jpg,COLEGIO INMACULADA,0.402,,0.68,
235,Edificio Bicentenario,-36.606539,-72.093762,Bulnes,,Chillan,25,88.575771294904,,,/data/tools/geoexplorer/Chile-NIST/photos/Maule.Chile.2010/235/13/jack_moehle_IMG_1462.JPG,,COLEGIO INMACULADA,0.402,,0.68,
236,Enterprise City Development,-33.388652,-70.617773,,,Santiago,33,6.21560426694759,,,,,CERRO SANTA LUCIA,0.338,,0.451,
237,Departamento Altavista,-36.608027,-72.098517,Sargento Aldea,,Chillan,25,88.1218754361553,,,/data/tools/geoexplorer/Chile-NIST/photos/Maule.Chile.2010/237/13/jack_moehle_IMG_1556.JPG,,COLEGIO INMACULADA,0.402,,0.68,
238,Edificio Central Park,-33.430126,-70.666915,Presidente Balmaceda,2150,Santiago,33,2.51753299698783,,,/data/tools/geoexplorer/Chile-NIST/photos/Maule.Chile.2010/238/31/marshall_lew_CP-42.jpg,/data/tools/geoexplorer/Chile-NIST/photos/Maule.Chile.2010/238/22/guillermo_franco_IMG_3090.JPG,CERRO SANTA LUCIA,0.338,,0.451,
239,Gebouw in Quilicura,-33.468914,-70.59795,Las Encinas,,Santiago,2,3.92905841007023,,,/data/tools/geoexplorer/Chile-NIST/photos/Maule.Chile.2010/239/13/jack_moehle_IMG_1124.JPG,,PENALOLEN RM,0.295,,0.29,
240,Edificio de Oficinas SCL,-33.414211,-70.582476,Apoquindo,,Santiago,10,4.68547089408674,,,/data/tools/geoexplorer/Chile-NIST/photos/Maule.Chile.2010/240/31/marshall_lew_MC-56.jpg,,CERRO CALAN,0.23,,0.29,
241,Condominio Sol Oriente,-33.475847,-70.600575,Exequiel Fernandez,,Santiago,2,3.3919072179908,,,/data/tools/geoexplorer/Chile-NIST/photos/Maule.Chile.2010/241/31/marshall_lew_Sol-130.jpg,/data/tools/geoexplorer/Chile-NIST/photos/Maule.Chile.2010/241/13/jack_moehle_IMG_0903.JPG,PENALOLEN RM,0.295,,0.29,
242,El Parque,-33.493936,-70.651259,Anita Vergara,,Santiago,38,2.99593487801583,,,/data/tools/geoexplorer/Chile-NIST/photos/Maule.Chile.2010/242/31/marshall_lew_ElP-71.jpg,/data/tools/geoexplorer/Chile-NIST/photos/Maule.Chile.2010/242/30/farzad_naeim_ElP-33.jpg,CENTRO RM,0.309,,0.26,
243,Echeverria Izquierdo,-33.405509,-70.573825,Cerro El Plomo,,Santiago,10,3.58386033475565,,,/data/tools/geoexplorer/Chile-NIST/photos/Maule.Chile.2010/243/31/marshall_lew_Eche-44.jpg,,CERRO CALAN,0.23,,0.29,
244,Edificio Bilbao,-33.434723,-70.587064,Avenida Diego de Almagro,3094,Santiago,33,5.21152039679205,,,/data/tools/geoexplorer/Chile-NIST/photos/Maule.Chile.2010/244/13/jack_moehle_IMG_0956.JPG,,CERRO SANTA LUCIA,0.338,,0.451,
245,Edificio en Quilicura,-33.455712,-70.584602,Los Cerezos,33,Santiago,32,5.01031197397615,,,/data/tools/geoexplorer/Chile-NIST/photos/Maule.Chile.2010/245/13/jack_moehle_IMG_0767.JPG,/data/tools/geoexplorer/Chile-NIST/photos/Maule.Chile.2010/245/13/jack_moehle_IMG_0755.JPG,COLEGIO LAS AMERICAS,0.308,,0.33,
246,Condominio Bosque Mar,-36.885822,-73.150838,Av. Costanera,7488,San Pedro de La Paz,9,5.94722537604628,,"/data/tools/geoexplorer/Chile-NIST/general_drawings/246/43/T-BM20-01 (BMdocumentation, BMdrawings, BMdeveloper, BMstructural).dwg\n/data/tools/geoexplorer/Chile-NIST/general_drawings/246/43/T-BM20-02 (BMdocumentation, BMdrawings, BMdeveloper, BMstructural).dwg\n/data/tools/geoexplorer/Chile-NIST/general_drawings/246/43/T-BM20-03 (BMdocumentation, BMdrawings, BMdeveloper, BMstructural).dwg\n/data/tools/geoexplorer/Chile-NIST/general_drawings/246/43/T-BM20-04 (BMdocumentation, BMdrawings, BMdeveloper, BMstructural).dwg\n/data/tools/geoexplorer/Chile-NIST/general_drawings/246/43/T-BM20-05 (BMdocumentation, BMdrawings, BMdeveloper, BMstructural).dwg\n/data/tools/geoexplorer/Chile-NIST/general_drawings/246/43/T-BM20-06 (BMdocumentation, BMdrawings, BMdeveloper, BMstructural).dwg\n/data/tools/geoexplorer/Chile-NIST/general_drawings/246/43/T-BM20-07 (BMdocumentation, BMdrawings, BMdeveloper, BMstructural).dwg\n/data/tools/geoexplorer/Chile-NIST/general_drawings/246/43/T-BM20-08 (BMdocumentation, BMdrawings, BMdeveloper, BMstructural).dwg\n/data/tools/geoexplorer/Chile-NIST/general_drawings/246/43/T-BM20-09 (BMdocumentation, BMdrawings, BMdeveloper, BMstructural).dwg\n/data/tools/geoexplorer/Chile-NIST/general_drawings/246/43/T-BM20-10 (BMdocumentation, BMdrawings, BMdeveloper, BMstructural).dwg\n/data/tools/geoexplorer/Chile-NIST/general_drawings/246/43/T-BM20-11 (BMdocumentation, BMdrawings, BMdeveloper, BMstructural).dwg\n/data/tools/geoexplorer/Chile-NIST/general_drawings/246/43/T-BM20-12 (BMdocumentation, BMdrawings, BMdeveloper, BMstructural).dwg\n/data/tools/geoexplorer/Chile-NIST/general_drawings/246/43/T-BM20-13 (BMdocumentation, BMdrawings, BMdeveloper, BMstructural).dwg\n/data/tools/geoexplorer/Chile-NIST/general_drawings/246/43/T-BM20-14 (BMdocumentation, BMdrawings, BMdeveloper, BMstructural).dwg\n/data/tools/geoexplorer/Chile-NIST/general_drawings/246/43/T-BM20-15 (BMdocumentation, BMdrawings, BMdeveloper, BMstructural).dwg\n/data/tools/geoexplorer/Chile-NIST/general_drawings/246/43/T-BM20-16 (BMdocumentation, BMdrawings, BMdeveloper, BMstructural).dwg\n/data/tools/geoexplorer/Chile-NIST/general_drawings/246/43/T-BM20-17 (BMdocumentation, BMdrawings, BMdeveloper, BMstructural).dwg\n/data/tools/geoexplorer/Chile-NIST/general_drawings/246/43/T-BM20-18 (BMdocumentation, BMdrawings, BMdeveloper, BMstructural).dwg\n/data/tools/geoexplorer/Chile-NIST/general_drawings/246/43/T-BM20-19 (BMdocumentation, BMdrawings, BMdeveloper, BMstructural).dwg\n/data/tools/geoexplorer/Chile-NIST/general_drawings/246/43/T-BM20-20 (BMdocumentation, BMdrawings, BMdeveloper, BMstructural).dwg\n/data/tools/geoexplorer/Chile-NIST/general_drawings/246/43/T-BM20-21 (BMdocumentation, BMdrawings, BMdeveloper, BMstructural).dwg\n/data/tools/geoexplorer/Chile-NIST/general_drawings/246/43/T-BM20-22 (BMdocumentation, BMdrawings, BMdeveloper, BMstructural).dwg\n/data/tools/geoexplorer/Chile-NIST/general_drawings/246/43/T-BM20-23 (BMdocumentation, BMdrawings, BMdeveloper, BMstructural).dwg\n/data/tools/geoexplorer/Chile-NIST/general_drawings/246/43/T-BM20-24 (BMdocumentation, BMdrawings, BMdeveloper, BMstructural).dwg\n/data/tools/geoexplorer/Chile-NIST/general_drawings/246/43/T-BM20-26 (BMdocumentation, BMdrawings, BMdeveloper, BMstructural).dwg\n/data/tools/geoexplorer/Chile-NIST/general_drawings/246/43/T-MB20-25 (BMdocumentation, BMdrawings, BMdeveloper, BMstructural).dwg\n/data/tools/geoexplorer/Chile-NIST/general_drawings/246/43/README.TXT",/data/tools/geoexplorer/Chile-NIST/photos/Maule.Chile.2010/246/30/farzad_naeim_BMSP-224.jpg,/data/tools/geoexplorer/Chile-NIST/photos/Maule.Chile.2010/246/11/alvaro_celestino_DSC01906.JPG,COLEGIO SAN PEDRO,0.65,,0.447,
247,Edificio Mar del Sur,-36.817703,-73.054203,Jose Joaquin Prieto,775,Concepcion,25,1.26989329618031,,,/data/tools/geoexplorer/Chile-NIST/photos/Maule.Chile.2010/247/30/farzad_naeim_PMC-2.jpg,,COLEGIO INMACULADA,0.402,,0.68,
248,San Jose,-33.594908,-70.713253,San Jose,,Santiago,11,7.92576408563488,,,/data/tools/geoexplorer/Chile-NIST/photos/Maule.Chile.2010/248/13/jack_moehle_IMG_0854.JPG,/data/tools/geoexplorer/Chile-NIST/photos/Maule.Chile.2010/248/13/jack_moehle_IMG_0874.JPG,CAMPUS ANTUMAPU,0.27,,0.257,
