Structure_ID,Building_Name,latitude,longitude,Street_Name,Street__Number,City,Closest__Station_ID,Distance_To__Closest__Station_km_For_Maule_Chile_2010,Distance_To__Closest__Station_km_For_Valparaiso_Chile_1985,General___Drawings,Main__Building__Photo,Example_of__Severe_Damage,Closest__Station_Name,Max__Hor__PGA__g__For_Maule_Chile_2010,Max__Hor__PGA__g__For_Valparaiso_Chile_1985,Max__Hor__PGV__m_s__For_Maule_Chile_2010,Max__Hor__PGV__m_s__For_Valparaiso_Chile_1985
200,New Miramar,-33.025633,-71.560658,Viana,,Viña del Mar,8,0.919796947324329,,"/data/tools/geoexplorer/Chile-NIST/general_drawings/200/6/LAM_01 (PE_FUNDACION) (foundation plan; in Spanish).dwg\n/data/tools/geoexplorer/Chile-NIST/general_drawings/200/6/LAM_02 (PL_FUND.ARM.INF.) (mat foundation bottom reinforcement; in Spanish).dwg\n/data/tools/geoexplorer/Chile-NIST/general_drawings/200/6/LAM_03 (PL_FUND.ARM.SUP.) (mat foundation top reinforcement; in Spanish).dwg\n/data/tools/geoexplorer/Chile-NIST/general_drawings/200/6/LAM_04 (PL_FUND.REFUERZOS) (mat foundation reinforcement; in Spanish).dwg\n/data/tools/geoexplorer/Chile-NIST/general_drawings/200/6/LAM_05_(PE_SUBTE) (basement plan; in Spanish).DWG\n/data/tools/geoexplorer/Chile-NIST/general_drawings/200/6/LAM_06_ (LOSA SUBTE ARM. INF.) (basement slab bottom reinforcement; in Spanish).DWG\n/data/tools/geoexplorer/Chile-NIST/general_drawings/200/6/LAM_07_ (LOSA SUBTE ARM. SUP.) (basement slab top reinforcement; in Spanish).DWG\n/data/tools/geoexplorer/Chile-NIST/general_drawings/200/6/LAM_08_(PE_PISO 1) (1st floor plan; in Spanish).DWG\n/data/tools/geoexplorer/Chile-NIST/general_drawings/200/6/LAM_09 (LOSA_INF_PISO 1) (1st floor slab bottom reinforcement; in Spanish).DWG\n/data/tools/geoexplorer/Chile-NIST/general_drawings/200/6/LAM_10 (LOSA_SUP_PISO 1) (1st floor slab top reinforcement; in Spanish).DWG\n/data/tools/geoexplorer/Chile-NIST/general_drawings/200/6/LAM_11_(PE_PISO 2) (2nd floor plan; in Spanish).DWG\n/data/tools/geoexplorer/Chile-NIST/general_drawings/200/6/LAM_12 (LOSA_INF_PISO 2) (2nd floor slab bottom reinforcement; in Spanish).DWG\n/data/tools/geoexplorer/Chile-NIST/general_drawings/200/6/LAM_13 (LOSA_SUP_PISO 2) (2nd floor top reinforcement; in Spanish).DWG\n/data/tools/geoexplorer/Chile-NIST/general_drawings/200/6/LAM_14_(PE_PISO 3 A 22) (3rd to 22nd floor plan; in Spanish).DWG\n/data/tools/geoexplorer/Chile-NIST/general_drawings/200/6/LAM_15 (LOSA_INF_PISOS 3 A22) (3rd to 22nd floor slab bottom reinforcement; in Spanish).DWG\n/data/tools/geoexplorer/Chile-NIST/general_drawings/200/6/LAM_16 (LOSA_SUP_PISOS 3 A22) (2rd to 22nd floor slab top reinforcement; in Spanish).DWG\n/data/tools/geoexplorer/Chile-NIST/general_drawings/200/6/LAM_17_(PE_PISO 23) (23rd floor plan; in Spanish).DWG\n/data/tools/geoexplorer/Chile-NIST/general_drawings/200/6/LAM_18 (LOSA_INF_PISO 23) (23rd floor slab bottom reinforcement; in Spanish).DWG\n/data/tools/geoexplorer/Chile-NIST/general_drawings/200/6/LAM_19 (LOSA_SUP_PISO 23) (23rd floor slab top reinforcement; in Spanish).DWG\n/data/tools/geoexplorer/Chile-NIST/general_drawings/200/6/LAM_20_(PE_PISO 24) (24th floor plan; in Spanish).DWG\n/data/tools/geoexplorer/Chile-NIST/general_drawings/200/6/LAM_21 (LOSA_INF_PISO 24) (24th floor slab bottom reinforcement; in Spanish).DWG\n/data/tools/geoexplorer/Chile-NIST/general_drawings/200/6/LAM_22 (LOSA_SUP_PISO 24) (24th floor slab top reinforcement; in Spanish).DWG\n/data/tools/geoexplorer/Chile-NIST/general_drawings/200/6/LAM_23_(PE_PL_PISO 24 PISCINA) (24th floor pool details; in Spanish).DWG\n/data/tools/geoexplorer/Chile-NIST/general_drawings/200/6/LAM_24_(PE_PISO 25) (25th floor plan; in Spanish).DWG\n/data/tools/geoexplorer/Chile-NIST/general_drawings/200/6/LAM_25 (LOSA_INF.-SUP._PISO 25) (25th floor slab reinforcement; in Spanish).DWG\n/data/tools/geoexplorer/Chile-NIST/general_drawings/200/6/LAM_26_(PE_PL_SALA MAQ.) (HVAC floor plans and sections; in Spanish).DWG\n/data/tools/geoexplorer/Chile-NIST/general_drawings/200/6/LAM_27 (EJE 1) (elev axis 1; in Spanish).DWG\n/data/tools/geoexplorer/Chile-NIST/general_drawings/200/6/LAM_28 (EJES 2,3) (elev axes 2, 3; in Spanish).DWG\n/data/tools/geoexplorer/Chile-NIST/general_drawings/200/6/LAM_29 (EJES 2A) (elev axis 2A; in Spanish).DWG\n/data/tools/geoexplorer/Chile-NIST/general_drawings/200/6/LAM_30 (EJE 4, 5) (elev axes 4, 5; in Spanish).DWG\n/data/tools/geoexplorer/Chile-NIST/general_drawings/200/6/LAM_31 (EJE 6) (elev axis 6; in Spanish).DWG\n/data/tools/geoexplorer/Chile-NIST/general_drawings/200/6/LAM_32 (EJE 7) (elev axis 7; in Spanish).DWG\n/data/tools/geoexplorer/Chile-NIST/general_drawings/200/6/LAM_33 (EJES 8,9,11) (elev axes 8,9,11; in Spanish).DWG\n/data/tools/geoexplorer/Chile-NIST/general_drawings/200/6/LAM_34 (EJES 14,15,16) (elev axes 14,15,16; in Spanish).DWG\n/data/tools/geoexplorer/Chile-NIST/general_drawings/200/6/LAM_35 (EJE 17) (elev axis 17; in Spanish).DWG\n/data/tools/geoexplorer/Chile-NIST/general_drawings/200/6/LAM_36 (EJE 22) (elev axis 22; in Spanish).DWG\n/data/tools/geoexplorer/Chile-NIST/general_drawings/200/6/LAM_37 (EJE 23) (elev axis 23; in Spanish).DWG\n/data/tools/geoexplorer/Chile-NIST/general_drawings/200/6/LAM_38 (EJE 24) (elev axis 24; in Spanish).DWG\n/data/tools/geoexplorer/Chile-NIST/general_drawings/200/6/LAM_39 (EJES 25-26) (elev axes 25-26; in Spanish).DWG\n/data/tools/geoexplorer/Chile-NIST/general_drawings/200/6/LAM_40 (EJE 27) (elev axis 27; in Spanish).DWG\n/data/tools/geoexplorer/Chile-NIST/general_drawings/200/6/LAM_41 (EJES A=W,B-C) (elev axes A=W,B-C; in Spanish).DWG\n/data/tools/geoexplorer/Chile-NIST/general_drawings/200/6/LAM_42 (EJE D) (elev axis D; in Spanish).DWG\n/data/tools/geoexplorer/Chile-NIST/general_drawings/200/6/LAM_43 (EJE E) (elev axis E; in Spanish).DWG\n/data/tools/geoexplorer/Chile-NIST/general_drawings/200/6/LAM_44 (EJE F, Q) (elev axes F, Q; in Spanish).DWG\n/data/tools/geoexplorer/Chile-NIST/general_drawings/200/6/LAM_45 (EJES G=P, H) (elev axes G=P, H; in Spanish).DWG\n/data/tools/geoexplorer/Chile-NIST/general_drawings/200/6/LAM_46 (EJE I) (elev axis I; in Spanish).DWG\n/data/tools/geoexplorer/Chile-NIST/general_drawings/200/6/LAM_47 (EJE J) (elev axis J; in Spanish).DWG\n/data/tools/geoexplorer/Chile-NIST/general_drawings/200/6/LAM_48 (EJES K,L) (elev axes K,L; in Spanish).DWG\n/data/tools/geoexplorer/Chile-NIST/general_drawings/200/6/LAM_49 (EJE M) (elev axis M; in Spanish).DWG\n/data/tools/geoexplorer/Chile-NIST/general_drawings/200/6/LAM_50 (EJE N) (elev axis N; in Spanish).DWG\n/data/tools/geoexplorer/Chile-NIST/general_drawings/200/6/LAM_51 (EJE O) (elev axis O; in Spanish).DWG\n/data/tools/geoexplorer/Chile-NIST/general_drawings/200/6/LAM_52 (EJE R) (elev axis R; in Spanish).dwg\n/data/tools/geoexplorer/Chile-NIST/general_drawings/200/6/LAM_52 (EJE R)-modificado (elev axis R modified; in Spanish).dwg\n/data/tools/geoexplorer/Chile-NIST/general_drawings/200/6/LAM_53 (EJE S) (elev axis S; in Spanish).DWG\n/data/tools/geoexplorer/Chile-NIST/general_drawings/200/6/LAM_54 (EJE T, U) (elev axes T, U; in Spanish).DWG\n/data/tools/geoexplorer/Chile-NIST/general_drawings/200/6/LAM_55 (EJE V) (elev axis V; in Spanish).DWG\n/data/tools/geoexplorer/Chile-NIST/general_drawings/200/6/LAM_56 (EJES AE,BE,BE',DE,CE,EE,FE,,DE',DE'',EE´) (elev, ejes=axes; in Spanish).dwg\n/data/tools/geoexplorer/Chile-NIST/general_drawings/200/6/LAM_57 (EJES GE-IE-HE-JE-2E-3E-FE'-5E-7E-9E-4E-11E) (elev, ejes=axes; in Spanish).dwg\n/data/tools/geoexplorer/Chile-NIST/general_drawings/200/6/LAM_58 (EJES 6E,8E,10E,12E,11E',12E',13E,14E,15E,16E,17E,17E') (elev, ejes=axes; in Spanish).dwg\n/data/tools/geoexplorer/Chile-NIST/general_drawings/200/6/LAM_59 (EJES 24E,23,E,23E',19E,20E,18E,21E,22E',22E,D2,E2) (elev, ejes=axes; in Spanish).dwg\n/data/tools/geoexplorer/Chile-NIST/general_drawings/200/6/LAM_60 (DEST. DE VIGA) (beam reinforcement details; in Spanish).DWG\n/data/tools/geoexplorer/Chile-NIST/general_drawings/200/6/LAM_61_(DETALLE ESCANTILLONES) (jacuzzi plan and sections; in Spanish).dwg\n/data/tools/geoexplorer/Chile-NIST/general_drawings/200/6/LAM_62 (DETALLE ESTANQUE) (tank details; in Spanish).dwg",/data/tools/geoexplorer/Chile-NIST/photos/Maule.Chile.2010/200/4/andres_lepage_DSCN0323.jpg,,CENTRO,0.334,,0.33,
201,Teatro,-33.024759,-71.550533,Plaza Vergara,,Viña del Mar,8,0.065103178468561,,,/data/tools/geoexplorer/Chile-NIST/photos/Maule.Chile.2010/201/4/andres_lepage_DSCN0287.jpg,/data/tools/geoexplorer/Chile-NIST/photos/Maule.Chile.2010/201/5/santiago_pujol_IMG_0379.JPG,CENTRO,0.334,,0.33,
202,Toledo,-33.019933,-71.553832,3 Norte,,Viña del Mar,8,0.660346734269942,,/data/tools/geoexplorer/Chile-NIST/general_drawings/202/6/Planta de Estructura Cielo Piso 1 (informe).dwg\n/data/tools/geoexplorer/Chile-NIST/general_drawings/202/6/Planta de Estructura Cielo Piso 10.dwg\n/data/tools/geoexplorer/Chile-NIST/general_drawings/202/6/Planta de Estructura Cielo Piso 2 a 8.dwg\n/data/tools/geoexplorer/Chile-NIST/general_drawings/202/6/Planta de Estructura Cielo Piso 9.dwg\n/data/tools/geoexplorer/Chile-NIST/general_drawings/202/6/Planta de Estructura Cielo Piso Subterraneo (informe).dwg\n/data/tools/geoexplorer/Chile-NIST/general_drawings/202/6/Scan # 1.TIF\n/data/tools/geoexplorer/Chile-NIST/general_drawings/202/6/Scan # 10.TIF\n/data/tools/geoexplorer/Chile-NIST/general_drawings/202/6/Scan # 11.TIF\n/data/tools/geoexplorer/Chile-NIST/general_drawings/202/6/Scan # 12.TIF\n/data/tools/geoexplorer/Chile-NIST/general_drawings/202/6/Scan # 13.TIF\n/data/tools/geoexplorer/Chile-NIST/general_drawings/202/6/Scan # 14.TIF\n/data/tools/geoexplorer/Chile-NIST/general_drawings/202/6/Scan # 15.TIF\n/data/tools/geoexplorer/Chile-NIST/general_drawings/202/6/Scan # 16.TIF\n/data/tools/geoexplorer/Chile-NIST/general_drawings/202/6/Scan # 17.TIF\n/data/tools/geoexplorer/Chile-NIST/general_drawings/202/6/Scan # 18.TIF\n/data/tools/geoexplorer/Chile-NIST/general_drawings/202/6/Scan # 19.TIF\n/data/tools/geoexplorer/Chile-NIST/general_drawings/202/6/Scan # 2.TIF\n/data/tools/geoexplorer/Chile-NIST/general_drawings/202/6/Scan # 20.TIF\n/data/tools/geoexplorer/Chile-NIST/general_drawings/202/6/Scan # 3.TIF\n/data/tools/geoexplorer/Chile-NIST/general_drawings/202/6/Scan # 4.TIF\n/data/tools/geoexplorer/Chile-NIST/general_drawings/202/6/Scan # 5.TIF\n/data/tools/geoexplorer/Chile-NIST/general_drawings/202/6/Scan # 6.TIF\n/data/tools/geoexplorer/Chile-NIST/general_drawings/202/6/Scan # 7.TIF\n/data/tools/geoexplorer/Chile-NIST/general_drawings/202/6/Scan # 8.TIF\n/data/tools/geoexplorer/Chile-NIST/general_drawings/202/6/Scan # 9.TIF\n/data/tools/geoexplorer/Chile-NIST/general_drawings/202/6/README.TXT,/data/tools/geoexplorer/Chile-NIST/photos/Maule.Chile.2010/202/3/gabriel_alarcon_DSC02127.JPG,/data/tools/geoexplorer/Chile-NIST/photos/Maule.Chile.2010/202/5/santiago_pujol_IMG_0686.JPG,CENTRO,0.334,,0.33,
