Structure_ID,Building_Name,latitude,longitude,Street_Name,Street__Number,City,Closest__Station_ID,Distance_To__Closest__Station_km_For_Maule_Chile_2010,Distance_To__Closest__Station_km_For_Valparaiso_Chile_1985,General___Drawings,Main__Building__Photo,Example_of__Severe_Damage,Closest__Station_Name,Max__Hor__PGA__g__For_Maule_Chile_2010,Max__Hor__PGA__g__For_Valparaiso_Chile_1985,Max__Hor__PGV__m_s__For_Maule_Chile_2010,Max__Hor__PGV__m_s__For_Valparaiso_Chile_1985
185,Torre Libertad,-36.828528,-73.052949,Lincoyan,440,Concepcion,25,0.416509067044445,,"/data/tools/geoexplorer/Chile-NIST/general_drawings/185/43/A01 (TLdocumentation, TLdrawings, TLmunicipalPermit, TLarchitectural).PDF\n/data/tools/geoexplorer/Chile-NIST/general_drawings/185/43/A02 (TLdocumentation, TLdrawings, TLmunicipalPermit, TLarchitectural).PDF\n/data/tools/geoexplorer/Chile-NIST/general_drawings/185/43/A03 (TLdocumentation, TLdrawings, TLmunicipalPermit, TLarchitectural).PDF\n/data/tools/geoexplorer/Chile-NIST/general_drawings/185/43/A04 (TLdocumentation, TLdrawings, TLmunicipalPermit, TLarchitectural).PDF\n/data/tools/geoexplorer/Chile-NIST/general_drawings/185/43/A05 (TLdocumentation, TLdrawings, TLmunicipalPermit, TLarchitectural).PDF\n/data/tools/geoexplorer/Chile-NIST/general_drawings/185/43/A06 (TLdocumentation, TLdrawings, TLmunicipalPermit, TLarchitectural).PDF\n/data/tools/geoexplorer/Chile-NIST/general_drawings/185/43/A07 (TLdocumentation, TLdrawings, TLmunicipalPermit, TLarchitectural).PDF\n/data/tools/geoexplorer/Chile-NIST/general_drawings/185/43/A08 (TLdocumentation, TLdrawings, TLmunicipalPermit, TLarchitectural).PDF\n/data/tools/geoexplorer/Chile-NIST/general_drawings/185/43/A09 (TLdocumentation, TLdrawings, TLmunicipalPermit, TLarchitectural).PDF\n/data/tools/geoexplorer/Chile-NIST/general_drawings/185/43/A10 (TLdocumentation, TLdrawings, TLmunicipalPermit, TLarchitectural).PDF\n/data/tools/geoexplorer/Chile-NIST/general_drawings/185/43/A11 (TLdocumentation, TLdrawings, TLmunicipalPermit, TLarchitectural).PDF\n/data/tools/geoexplorer/Chile-NIST/general_drawings/185/43/A12 (TLdocumentation, TLdrawings, TLmunicipalPermit, TLarchitectural).PDF\n/data/tools/geoexplorer/Chile-NIST/general_drawings/185/43/A13 (TLdocumentation, TLdrawings, TLmunicipalPermit, TLarchitectural).PDF\n/data/tools/geoexplorer/Chile-NIST/general_drawings/185/43/A14 (TLdocumentation, TLdrawings, TLmunicipalPermit, TLarchitectural).PDF\n/data/tools/geoexplorer/Chile-NIST/general_drawings/185/43/A15 (TLdocumentation, TLdrawings, TLmunicipalPermit, TLarchitectural).PDF\n/data/tools/geoexplorer/Chile-NIST/general_drawings/185/43/A16 (TLdocumentation, TLdrawings, TLmunicipalPermit, TLarchitectural).PDF\n/data/tools/geoexplorer/Chile-NIST/general_drawings/185/43/A17 (TLdocumentation, TLdrawings, TLmunicipalPermit, TLarchitectural).PDF\n/data/tools/geoexplorer/Chile-NIST/general_drawings/185/43/A18 (TLdocumentation, TLdrawings, TLmunicipalPermit, TLarchitectural).PDF\n/data/tools/geoexplorer/Chile-NIST/general_drawings/185/43/E01 (TLdocumentation, TLdrawings, TLmunicipalPermit, TLstructural).PDF\n/data/tools/geoexplorer/Chile-NIST/general_drawings/185/43/E02 (TLdocumentation, TLdrawings, TLmunicipalPermit, TLstructural).PDF\n/data/tools/geoexplorer/Chile-NIST/general_drawings/185/43/E03 (TLdocumentation, TLdrawings, TLmunicipalPermit, TLstructural).PDF\n/data/tools/geoexplorer/Chile-NIST/general_drawings/185/43/E04 (TLdocumentation, TLdrawings, TLmunicipalPermit, TLstructural).PDF\n/data/tools/geoexplorer/Chile-NIST/general_drawings/185/43/E05 (TLdocumentation, TLdrawings, TLmunicipalPermit, TLstructural).PDF\n/data/tools/geoexplorer/Chile-NIST/general_drawings/185/43/E06 (TLdocumentation, TLdrawings, TLmunicipalPermit, TLstructural).PDF\n/data/tools/geoexplorer/Chile-NIST/general_drawings/185/43/E07 (TLdocumentation, TLdrawings, TLmunicipalPermit, TLstructural).PDF\n/data/tools/geoexplorer/Chile-NIST/general_drawings/185/43/E08 (TLdocumentation, TLdrawings, TLmunicipalPermit, TLstructural).PDF\n/data/tools/geoexplorer/Chile-NIST/general_drawings/185/43/E09 (TLdocumentation, TLdrawings, TLmunicipalPermit, TLstructural).PDF\n/data/tools/geoexplorer/Chile-NIST/general_drawings/185/43/E10 (TLdocumentation, TLdrawings, TLmunicipalPermit, TLstructural).PDF\n/data/tools/geoexplorer/Chile-NIST/general_drawings/185/43/E11 (TLdocumentation, TLdrawings, TLmunicipalPermit, TLstructural).PDF\n/data/tools/geoexplorer/Chile-NIST/general_drawings/185/43/E12 (TLdocumentation, TLdrawings, TLmunicipalPermit, TLstructural).PDF\n/data/tools/geoexplorer/Chile-NIST/general_drawings/185/43/E13 (TLdocumentation, TLdrawings, TLmunicipalPermit, TLstructural).PDF\n/data/tools/geoexplorer/Chile-NIST/general_drawings/185/43/E14 (TLdocumentation, TLdrawings, TLmunicipalPermit, TLstructural).PDF\n/data/tools/geoexplorer/Chile-NIST/general_drawings/185/43/E15 (TLdocumentation, TLdrawings, TLmunicipalPermit, TLstructural).PDF\n/data/tools/geoexplorer/Chile-NIST/general_drawings/185/43/E16 (TLdocumentation, TLdrawings, TLmunicipalPermit, TLstructural).PDF\n/data/tools/geoexplorer/Chile-NIST/general_drawings/185/43/E17 (TLdocumentation, TLdrawings, TLmunicipalPermit, TLstructural).PDF\n/data/tools/geoexplorer/Chile-NIST/general_drawings/185/43/E18 (TLdocumentation, TLdrawings, TLmunicipalPermit, TLstructural).PDF\n/data/tools/geoexplorer/Chile-NIST/general_drawings/185/43/E19 (TLdocumentation, TLdrawings, TLmunicipalPermit, TLstructural).PDF\n/data/tools/geoexplorer/Chile-NIST/general_drawings/185/43/E20 (TLdocumentation, TLdrawings, TLmunicipalPermit, TLstructural).PDF\n/data/tools/geoexplorer/Chile-NIST/general_drawings/185/43/E21 (TLdocumentation, TLdrawings, TLmunicipalPermit, TLstructural).PDF\n/data/tools/geoexplorer/Chile-NIST/general_drawings/185/43/E22 (TLdocumentation, TLdrawings, TLmunicipalPermit, TLstructural).PDF\n/data/tools/geoexplorer/Chile-NIST/general_drawings/185/43/E23 (TLdocumentation, TLdrawings, TLmunicipalPermit, TLstructural).PDF\n/data/tools/geoexplorer/Chile-NIST/general_drawings/185/43/E24 (TLdocumentation, TLdrawings, TLmunicipalPermit, TLstructural).PDF\n/data/tools/geoexplorer/Chile-NIST/general_drawings/185/43/E25 (TLdocumentation, TLdrawings, TLmunicipalPermit, TLstructural).PDF\n/data/tools/geoexplorer/Chile-NIST/general_drawings/185/43/E26 (TLdocumentation, TLdrawings, TLmunicipalPermit, TLstructural).PDF",/data/tools/geoexplorer/Chile-NIST/photos/Maule.Chile.2010/185/5/santiago_pujol_IMG_0383.JPG,/data/tools/geoexplorer/Chile-NIST/photos/Maule.Chile.2010/185/21/carlos_sempere_Sempere_5967.jpg,COLEGIO INMACULADA,0.402,,0.68,
186,Sodimac Distribution Center,-36.982306,-73.172159,Av Golfo de Arauco,,Coronel,9,16.349826071998,,,/data/tools/geoexplorer/Chile-NIST/photos/Maule.Chile.2010/186/1/jay_harris_Sodimac Distribution Center - 0050 - JLH.JPG,/data/tools/geoexplorer/Chile-NIST/photos/Maule.Chile.2010/186/1/jay_harris_Sodimac Distribution Center - 0027 - JLH.JPG,COLEGIO SAN PEDRO,0.65,,0.447,
187,Condominio Los Reyes de Huechuraba,-33.346823,-70.670983,Av Pedro Fontova,7788,Santiago,33,10.7399863141396,,,/data/tools/geoexplorer/Chile-NIST/photos/Maule.Chile.2010/187/1/jay_harris_Condominio Los Reyes de Huechuraba - 0004 - JLH.JPG,/data/tools/geoexplorer/Chile-NIST/photos/Maule.Chile.2010/187/1/jay_harris_Condominio Los Reyes de Huechuraba - 0002 - JLH.JPG,CERRO SANTA LUCIA,0.338,,0.451,
188,Edificio Hipodromo Independencia,-33.407073,-70.665249,Av Hipodromo Chile,1770,Santiago,33,4.26097998407326,,,/data/tools/geoexplorer/Chile-NIST/photos/Maule.Chile.2010/188/1/jay_harris_edificio_hipodromo_JLH (4).JPG,,CERRO SANTA LUCIA,0.338,,0.451,
189,Vista Hipodromo,-33.406505,-70.663203,Av Hipodromo Chile,1631,Santiago,33,4.22780567321046,,,/data/tools/geoexplorer/Chile-NIST/photos/Maule.Chile.2010/189/1/jay_harris_edificio_vista_hipodromo_JLH (1).JPG,/data/tools/geoexplorer/Chile-NIST/photos/Maule.Chile.2010/189/22/guillermo_franco_IMG_3006.JPG,CERRO SANTA LUCIA,0.338,,0.451,
190,Vista Santa Maria,-33.429434,-70.657557,Av General Prieto,1717,Santiago,33,1.84098260861782,,,/data/tools/geoexplorer/Chile-NIST/photos/Maule.Chile.2010/190/1/jay_harris_edificios_vista_santa_maria_JLH (17).JPG,/data/tools/geoexplorer/Chile-NIST/photos/Maule.Chile.2010/190/1/jay_harris_edificios_vista_santa_maria_JLH (15).JPG,CERRO SANTA LUCIA,0.338,,0.451,
191,Patio Mayor 1,-33.388106,-70.617179,Av. del Valle,937,Santiago,33,6.29258869004475,,,/data/tools/geoexplorer/Chile-NIST/photos/Maule.Chile.2010/191/8/gilberto_leiva_DSC02580.JPG,/data/tools/geoexplorer/Chile-NIST/photos/Maule.Chile.2010/191/1/jay_harris_Edificio Patio Mayor 937 - 0038 - JLH.JPG,CERRO SANTA LUCIA,0.338,,0.451,
192,Patio Mayor 2,-33.388315,-70.617954,Av. del Valle,945,Santiago,33,6.24415519998756,,,/data/tools/geoexplorer/Chile-NIST/photos/Maule.Chile.2010/192/1/jay_harris_Edificio Patio Mayor 945 - 0038 - JLH.JPG,/data/tools/geoexplorer/Chile-NIST/photos/Maule.Chile.2010/192/1/jay_harris_Edificio Patio Mayor 945 - 0022 - JLH.JPG,CERRO SANTA LUCIA,0.338,,0.451,
193,Patio Mayor 3,-33.388315,-70.618366,Av. del Valle,961,Santiago,33,6.23013376023357,,,/data/tools/geoexplorer/Chile-NIST/photos/Maule.Chile.2010/193/8/gilberto_leiva_DSC02567.JPG,/data/tools/geoexplorer/Chile-NIST/photos/Maule.Chile.2010/193/1/jay_harris_Edificio Patio Mayor 961 - 0026 - JLH.JPG,CERRO SANTA LUCIA,0.338,,0.451,
194,Patio Mayor 4,-33.388588,-70.618881,Av. Santa Clara,301,Santiago,33,6.18454966574488,,,/data/tools/geoexplorer/Chile-NIST/photos/Maule.Chile.2010/194/1/jay_harris_Edificio Patio Mayor 301 - 0060 - JLH.JPG,,CERRO SANTA LUCIA,0.338,,0.451,
195,Don Tristan,-33.505187,-70.755386,Bailen,2320,Santiago,1,1.58016330176078,,,/data/tools/geoexplorer/Chile-NIST/photos/Maule.Chile.2010/195/3/gabriel_alarcon_DSC02270.JPG,/data/tools/geoexplorer/Chile-NIST/photos/Maule.Chile.2010/195/5/santiago_pujol_IMG_0987.JPG,MAIPU RM,0.561,,0.44,
196,Alcazar,-33.026477,-71.553655,Alvarez,,Viña del Mar,8,0.29660371905242,,/data/tools/geoexplorer/Chile-NIST/general_drawings/196/6/LAM_01-NOTAS GENERALES (general notes; in Spanish).dwg\n/data/tools/geoexplorer/Chile-NIST/general_drawings/196/6/LAM_02-ESTRUCTURA FUNDACION (foundation plan; in Spanish).dwg\n/data/tools/geoexplorer/Chile-NIST/general_drawings/196/6/LAM_02a(CANALETAS SALA DE BOMBAS y ESTANQUES) (tank and channel details of the pump room; in Spanish).dwg\n/data/tools/geoexplorer/Chile-NIST/general_drawings/196/6/LAM_03-LOSA FUNDACION (ARMADURA INF) (mat foundation bottom reinforcement; in Spanish).DWG\n/data/tools/geoexplorer/Chile-NIST/general_drawings/196/6/LAM_04-LOSA FUNDACION (ARMADDURA SUP) (mat foundation top reinforcement; in Spanish).DWG\n/data/tools/geoexplorer/Chile-NIST/general_drawings/196/6/LAM_05-PLANTA REFUERZOS DE FUNDACION (reinforcement plan of foundation; in Spanish).dwg\n/data/tools/geoexplorer/Chile-NIST/general_drawings/196/6/LAM_06-PLANTA EST-SUBTE-3 (reinforcement plan of basement 3; in Spanish).dwg\n/data/tools/geoexplorer/Chile-NIST/general_drawings/196/6/LAM_07-PLANTA EST-SUBTE-2 (reinforcement plan of basement 2; in Spanish).dwg\n/data/tools/geoexplorer/Chile-NIST/general_drawings/196/6/LAM_08-PLANTA EST-SUBTE-1 (reinforcement plan of basement 1; in Spanish).dwg\n/data/tools/geoexplorer/Chile-NIST/general_drawings/196/6/LAM_09-PLANTA EST-PISO 1 (reinforcement plan of floor 1; in Spanish).dwg\n/data/tools/geoexplorer/Chile-NIST/general_drawings/196/6/LAM_10-PLANTA EST-PISO 2 (reinforcement plan of floor 2; in Spanish).dwg\n/data/tools/geoexplorer/Chile-NIST/general_drawings/196/6/LAM_11-PLANTA EST-PISOS 3a5 (reinforcement plan of floors 3 to 5; in Spanish).dwg\n/data/tools/geoexplorer/Chile-NIST/general_drawings/196/6/LAM_12-PLANTA EST-PISOS 6a9 (reinforcement plan of floors 6 to 9; in Spanish).dwg\n/data/tools/geoexplorer/Chile-NIST/general_drawings/196/6/LAM_13-PLANTA EST-PISOS 10a15 (reinforcement plan of floors 10 to 15; in Spanish).dwg\n/data/tools/geoexplorer/Chile-NIST/general_drawings/196/6/LAM_14-PLANTA EST-PISO 16 (reinforcement plan of floor 16; in Spanish).dwg\n/data/tools/geoexplorer/Chile-NIST/general_drawings/196/6/LAM_15-EJES A-B-B'-C-C' (elev axes A-B-B'-C-C'; in Spanish).dwg\n/data/tools/geoexplorer/Chile-NIST/general_drawings/196/6/LAM_16-EJE D (elev axis D; in Spanish).dwg\n/data/tools/geoexplorer/Chile-NIST/general_drawings/196/6/LAM_17-EJE F (elev axis F; in Spanish).dwg\n/data/tools/geoexplorer/Chile-NIST/general_drawings/196/6/LAM_18-EJE G (elev axis G; in Spanish).dwg\n/data/tools/geoexplorer/Chile-NIST/general_drawings/196/6/LAM_19-EJE I (elev axis I; in Spanish).dwg\n/data/tools/geoexplorer/Chile-NIST/general_drawings/196/6/LAM_20-EJES J-K (elev axes J-K; in Spanish).dwg\n/data/tools/geoexplorer/Chile-NIST/general_drawings/196/6/LAM_21-EJE 2 (elev axis 2; in Spanish).dwg\n/data/tools/geoexplorer/Chile-NIST/general_drawings/196/6/LAM_22-EJE 3 (elev axis 3; in Spanish).dwg\n/data/tools/geoexplorer/Chile-NIST/general_drawings/196/6/LAM_23- EJE 4 (elev axis 4; in Spanish).dwg\n/data/tools/geoexplorer/Chile-NIST/general_drawings/196/6/LAM_24- EJE 5 (elev axis 5; in Spanish).dwg\n/data/tools/geoexplorer/Chile-NIST/general_drawings/196/6/LAM_25a- EJE 6 (elev axis 6; in Spanish).dwg\n/data/tools/geoexplorer/Chile-NIST/general_drawings/196/6/LAM_26- EJES 1-6'-7-8-9 (elev axes 1-6'-7-8-9; in Spanish).DWG\n/data/tools/geoexplorer/Chile-NIST/general_drawings/196/6/LAM_27 RAMPAS (ramp details and sections; in Spanish).dwg\n/data/tools/geoexplorer/Chile-NIST/general_drawings/196/6/LAM_28-ESTANQUES (tank plans; in Spanish).dwg\n/data/tools/geoexplorer/Chile-NIST/general_drawings/196/6/LAM_29-ESCALA SB-3aP2 (plans and sections of stairs basement 3 to floor 2; in Spanish).dwg\n/data/tools/geoexplorer/Chile-NIST/general_drawings/196/6/LAM_30-ESCALA P3aP16 (plans and sections of stairs floors 3 to 16; in Spanish).dwg\n/data/tools/geoexplorer/Chile-NIST/general_drawings/196/6/LAM_31-DESTACADO VIGAS PISO 1º y 2º (beam reinforcement details floors 1 and 2; in Spanish).dwg\n/data/tools/geoexplorer/Chile-NIST/general_drawings/196/6/LAM_32-ELEVACION EJE K Y CORTES (elev axis K and sections; in Spanish).dwg,/data/tools/geoexplorer/Chile-NIST/photos/Maule.Chile.2010/196/4/andres_lepage_DSCN0326.jpg,,CENTRO,0.334,,0.33,
197,Torre del Almendral,-33.049866,-71.605968,Almirante Barroso,,Viña del Mar,35,0.945909311770939,2.84615691226881,/data/tools/geoexplorer/Chile-NIST/general_drawings/197/10/floor_plan_532.pdf,/data/tools/geoexplorer/Chile-NIST/photos/Maule.Chile.2010/197/4/andres_lepage_DSCN0318.jpg,,EL ALMENDRAL,0.265,0.363,0.29,
198,Bahia,-33.015695,-71.557445,Av Peru,530,Viña del Mar,8,1.23471209377163,,,/data/tools/geoexplorer/Chile-NIST/photos/Maule.Chile.2010/198/4/andres_lepage_DSCN0558.jpg,/data/tools/geoexplorer/Chile-NIST/photos/Maule.Chile.2010/198/5/santiago_pujol_IMG_0843.JPG,CENTRO,0.334,,0.33,
199,Lorena,-33.015873,-71.557675,Av Peru,576,Viña del Mar,8,1.2286810725197,,,/data/tools/geoexplorer/Chile-NIST/photos/Maule.Chile.2010/199/4/andres_lepage_DSCN0557.jpg,,CENTRO,0.334,,0.33,
