Structure_ID,Building_Name,latitude,longitude,Street_Name,Street__Number,City,Closest__Station_ID,Distance_To__Closest__Station_km_For_Maule_Chile_2010,Distance_To__Closest__Station_km_For_Valparaiso_Chile_1985,General___Drawings,Main__Building__Photo,Example_of__Severe_Damage,Closest__Station_Name,Max__Hor__PGA__g__For_Maule_Chile_2010,Max__Hor__PGA__g__For_Valparaiso_Chile_1985,Max__Hor__PGV__m_s__For_Maule_Chile_2010,Max__Hor__PGV__m_s__For_Valparaiso_Chile_1985
203,Alto Arauco,-36.818596,-73.041249,Av Los Carrera,1555,Concepcion,25,1.22911095375815,,"/data/tools/geoexplorer/Chile-NIST/general_drawings/203/43/1136-00 (AAdocumentation, AAdrawings, AAdeveloper, AAstructural).dwg\n/data/tools/geoexplorer/Chile-NIST/general_drawings/203/43/1136-01 (AAdocumentation, AAdrawings, AAdeveloper, AAstructural).dwg\n/data/tools/geoexplorer/Chile-NIST/general_drawings/203/43/1136-02 (AAdocumentation, AAdrawings, AAdeveloper, AAstructural).dwg\n/data/tools/geoexplorer/Chile-NIST/general_drawings/203/43/1136-03 (AAdocumentation, AAdrawings, AAdeveloper, AAstructural).dwg\n/data/tools/geoexplorer/Chile-NIST/general_drawings/203/43/1136-04 (AAdocumentation, AAdrawings, AAdeveloper, AAstructural).dwg\n/data/tools/geoexplorer/Chile-NIST/general_drawings/203/43/1136-05 (AAdocumentation, AAdrawings, AAdeveloper, AAstructural).dwg\n/data/tools/geoexplorer/Chile-NIST/general_drawings/203/43/1136-06 (AAdocumentation, AAdrawings, AAdeveloper, AAstructural).dwg\n/data/tools/geoexplorer/Chile-NIST/general_drawings/203/43/1136-07 (AAdocumentation, AAdrawings, AAdeveloper, AAstructural).dwg\n/data/tools/geoexplorer/Chile-NIST/general_drawings/203/43/1136-08 (AAdocumentation, AAdrawings, AAdeveloper, AAstructural).dwg\n/data/tools/geoexplorer/Chile-NIST/general_drawings/203/43/1136-09 (AAdocumentation, AAdrawings, AAdeveloper, AAstructural).dwg\n/data/tools/geoexplorer/Chile-NIST/general_drawings/203/43/1136-10 (AAdocumentation, AAdrawings, AAdeveloper, AAstructural).dwg\n/data/tools/geoexplorer/Chile-NIST/general_drawings/203/43/1136-11 (AAdocumentation, AAdrawings, AAdeveloper, AAstructural).dwg\n/data/tools/geoexplorer/Chile-NIST/general_drawings/203/43/1136-12 (AAdocumentation, AAdrawings, AAdeveloper, AAstructural).dwg\n/data/tools/geoexplorer/Chile-NIST/general_drawings/203/43/1136-13 (AAdocumentation, AAdrawings, AAdeveloper, AAstructural).dwg\n/data/tools/geoexplorer/Chile-NIST/general_drawings/203/43/1136-14 (AAdocumentation, AAdrawings, AAdeveloper, AAstructural).dwg\n/data/tools/geoexplorer/Chile-NIST/general_drawings/203/43/1136-15 (AAdocumentation, AAdrawings, AAdeveloper, AAstructural).dwg\n/data/tools/geoexplorer/Chile-NIST/general_drawings/203/43/1136-16 (AAdocumentation, AAdrawings, AAdeveloper, AAstructural).dwg\n/data/tools/geoexplorer/Chile-NIST/general_drawings/203/43/1136-17 (AAdocumentation, AAdrawings, AAdeveloper, AAstructural).dwg\n/data/tools/geoexplorer/Chile-NIST/general_drawings/203/43/1136-18 (AAdocumentation, AAdrawings, AAdeveloper, AAstructural).dwg\n/data/tools/geoexplorer/Chile-NIST/general_drawings/203/43/1136-19 (AAdocumentation, AAdrawings, AAdeveloper, AAstructural).dwg\n/data/tools/geoexplorer/Chile-NIST/general_drawings/203/43/1136-20 (AAdocumentation, AAdrawings, AAdeveloper, AAstructural).dwg\n/data/tools/geoexplorer/Chile-NIST/general_drawings/203/43/1136-21 (AAdocumentation, AAdrawings, AAdeveloper, AAstructural).dwg\n/data/tools/geoexplorer/Chile-NIST/general_drawings/203/43/1136-22 (AAdocumentation, AAdrawings, AAdeveloper, AAstructural).dwg\n/data/tools/geoexplorer/Chile-NIST/general_drawings/203/43/1136-23 (AAdocumentation, AAdrawings, AAdeveloper, AAstructural).dwg\n/data/tools/geoexplorer/Chile-NIST/general_drawings/203/43/1136-24 (AAdocumentation, AAdrawings, AAdeveloper, AAstructural).dwg\n/data/tools/geoexplorer/Chile-NIST/general_drawings/203/43/1136-25 (AAdocumentation, AAdrawings, AAdeveloper, AAstructural).dwg\n/data/tools/geoexplorer/Chile-NIST/general_drawings/203/43/1136-26 (AAdocumentation, AAdrawings, AAdeveloper, AAstructural).dwg\n/data/tools/geoexplorer/Chile-NIST/general_drawings/203/43/1136-27 (AAdocumentation, AAdrawings, AAdeveloper, AAstructural).dwg\n/data/tools/geoexplorer/Chile-NIST/general_drawings/203/43/1136-28 (AAdocumentation, AAdrawings, AAdeveloper, AAstructural).dwg\n/data/tools/geoexplorer/Chile-NIST/general_drawings/203/43/1136-29 (AAdocumentation, AAdrawings, AAdeveloper, AAstructural).dwg\n/data/tools/geoexplorer/Chile-NIST/general_drawings/203/43/1136-30 (AAdocumentation, AAdrawings, AAdeveloper, AAstructural).dwg\n/data/tools/geoexplorer/Chile-NIST/general_drawings/203/43/1136-31 (AAdocumentation, AAdrawings, AAdeveloper, AAstructural).dwg\n/data/tools/geoexplorer/Chile-NIST/general_drawings/203/43/1136-32 (AAdocumentation, AAdrawings, AAdeveloper, AAstructural).dwg\n/data/tools/geoexplorer/Chile-NIST/general_drawings/203/43/1136-33 (AAdocumentation, AAdrawings, AAdeveloper, AAstructural).dwg\n/data/tools/geoexplorer/Chile-NIST/general_drawings/203/43/1136-34 (AAdocumentation, AAdrawings, AAdeveloper, AAstructural).dwg\n/data/tools/geoexplorer/Chile-NIST/general_drawings/203/43/1136-35 (AAdocumentation, AAdrawings, AAdeveloper, AAstructural).dwg\n/data/tools/geoexplorer/Chile-NIST/general_drawings/203/43/1136-36 (AAdocumentation, AAdrawings, AAdeveloper, AAstructural).dwg\n/data/tools/geoexplorer/Chile-NIST/general_drawings/203/43/1136-37 (AAdocumentation, AAdrawings, AAdeveloper, AAstructural).dwg\n/data/tools/geoexplorer/Chile-NIST/general_drawings/203/43/1136-38 (AAdocumentation, AAdrawings, AAdeveloper, AAstructural).dwg\n/data/tools/geoexplorer/Chile-NIST/general_drawings/203/43/1136-39 (AAdocumentation, AAdrawings, AAdeveloper, AAstructural).dwg\n/data/tools/geoexplorer/Chile-NIST/general_drawings/203/43/1136-40 (AAdocumentation, AAdrawings, AAdeveloper, AAstructural).dwg\n/data/tools/geoexplorer/Chile-NIST/general_drawings/203/43/1136-41 (AAdocumentation, AAdrawings, AAdeveloper, AAstructural).dwg\n/data/tools/geoexplorer/Chile-NIST/general_drawings/203/43/1136-42 (AAdocumentation, AAdrawings, AAdeveloper, AAstructural).dwg\n/data/tools/geoexplorer/Chile-NIST/general_drawings/203/43/1136-43 (AAdocumentation, AAdrawings, AAdeveloper, AAstructural).dwg\n/data/tools/geoexplorer/Chile-NIST/general_drawings/203/43/1136-44 (AAdocumentation, AAdrawings, AAdeveloper, AAstructural).dwg\n/data/tools/geoexplorer/Chile-NIST/general_drawings/203/43/1136-45 (AAdocumentation, AAdrawings, AAdeveloper, AAstructural).dwg\n/data/tools/geoexplorer/Chile-NIST/general_drawings/203/43/1136-46 (AAdocumentation, AAdrawings, AAdeveloper, AAstructural).dwg\n/data/tools/geoexplorer/Chile-NIST/general_drawings/203/43/1136-47 (AAdocumentation, AAdrawings, AAdeveloper, AAstructural).dwg\n/data/tools/geoexplorer/Chile-NIST/general_drawings/203/43/1136-S01 (AAdocumentation, AAdrawings, AAdeveloper, AAfoundationStabilization).dwg\n/data/tools/geoexplorer/Chile-NIST/general_drawings/203/43/1648-E01 (AAdocumentation, AAdrawings, AAdeveloper, AAfoundationStabilization).dwg\n/data/tools/geoexplorer/Chile-NIST/general_drawings/203/43/1648-E02 (AAdocumentation, AAdrawings, AAdeveloper, AAfoundationStabilization).dwg\n/data/tools/geoexplorer/Chile-NIST/general_drawings/203/43/1648-E03 (AAdocumentation, AAdrawings, AAdeveloper, AAfoundationStabilization).dwg\n/data/tools/geoexplorer/Chile-NIST/general_drawings/203/43/1648-E04 (AAdocumentation, AAdrawings, AAdeveloper, AAfoundationStabilization).dwg\n/data/tools/geoexplorer/Chile-NIST/general_drawings/203/43/1648-E05 (AAdocumentation, AAdrawings, AAdeveloper, AAfoundationStabilization).dwg\n/data/tools/geoexplorer/Chile-NIST/general_drawings/203/43/1648-E06 (AAdocumentation, AAdrawings, AAdeveloper, AAfoundationStabilization).dwg\n/data/tools/geoexplorer/Chile-NIST/general_drawings/203/43/1648-E07 (AAdocumentation, AAdrawings, AAdeveloper, AAfoundationStabilization).dwg\n/data/tools/geoexplorer/Chile-NIST/general_drawings/203/43/1648-E08 (AAdocumentation, AAdrawings, AAdeveloper, AAfoundationStabilization).dwg\n/data/tools/geoexplorer/Chile-NIST/general_drawings/203/43/1648-E09 (AAdocumentation, AAdrawings, AAdeveloper, AAfoundationStabilization).dwg\n/data/tools/geoexplorer/Chile-NIST/general_drawings/203/43/1648-E10 (AAdocumentation, AAdrawings, AAdeveloper, AAfoundationStabilization).dwg\n/data/tools/geoexplorer/Chile-NIST/general_drawings/203/43/1648-E11 (AAdocumentation, AAdrawings, AAdeveloper, AAfoundationStabilization).dwg\n/data/tools/geoexplorer/Chile-NIST/general_drawings/203/43/A100 (AAdocumentation, AAdrawings, AAmunicipalPermit).PDF\n/data/tools/geoexplorer/Chile-NIST/general_drawings/203/43/A102 (AAdocumentation, AAdrawings, AAmunicipalPermit).PDF\n/data/tools/geoexplorer/Chile-NIST/general_drawings/203/43/A103 (AAdocumentation, AAdrawings, AAmunicipalPermit).PDF\n/data/tools/geoexplorer/Chile-NIST/general_drawings/203/43/A104 (AAdocumentation, AAdrawings, AAmunicipalPermit).PDF\n/data/tools/geoexplorer/Chile-NIST/general_drawings/203/43/A105 (AAdocumentation, AAdrawings, AAmunicipalPermit).PDF\n/data/tools/geoexplorer/Chile-NIST/general_drawings/203/43/A106 (AAdocumentation, AAdrawings, AAmunicipalPermit).PDF\n/data/tools/geoexplorer/Chile-NIST/general_drawings/203/43/A107 (AAdocumentation, AAdrawings, AAmunicipalPermit).PDF\n/data/tools/geoexplorer/Chile-NIST/general_drawings/203/43/A108 (AAdocumentation, AAdrawings, AAmunicipalPermit).PDF\n/data/tools/geoexplorer/Chile-NIST/general_drawings/203/43/A109 (AAdocumentation, AAdrawings, AAmunicipalPermit).PDF\n/data/tools/geoexplorer/Chile-NIST/general_drawings/203/43/A110 (AAdocumentation, AAdrawings, AAmunicipalPermit).PDF\n/data/tools/geoexplorer/Chile-NIST/general_drawings/203/43/A111 (AAdocumentation, AAdrawings, AAmunicipalPermit).PDF\n/data/tools/geoexplorer/Chile-NIST/general_drawings/203/43/A112 (AAdocumentation, AAdrawings, AAmunicipalPermit).PDF\n/data/tools/geoexplorer/Chile-NIST/general_drawings/203/43/A113 (AAdocumentation, AAdrawings, AAmunicipalPermit).PDF\n/data/tools/geoexplorer/Chile-NIST/general_drawings/203/43/A114 (AAdocumentation, AAdrawings, AAmunicipalPermit).PDF\n/data/tools/geoexplorer/Chile-NIST/general_drawings/203/43/A115 (AAdocumentation, AAdrawings, AAmunicipalPermit).PDF\n/data/tools/geoexplorer/Chile-NIST/general_drawings/203/43/A117 (AAdocumentation, AAdrawings, AAmunicipalPermit).PDF\n/data/tools/geoexplorer/Chile-NIST/general_drawings/203/43/Elev-N-O (AAdocumentation, AAdrawings, AAdeveloper, AAarchitectural).dwg\n/data/tools/geoexplorer/Chile-NIST/general_drawings/203/43/Elev-N-P (AAdocumentation, AAdrawings, AAdeveloper, AAarchitectural).dwg\n/data/tools/geoexplorer/Chile-NIST/general_drawings/203/43/Elev-S-O (AAdocumentation, AAdrawings, AAdeveloper, AAarchitectural).dwg\n/data/tools/geoexplorer/Chile-NIST/general_drawings/203/43/Elev-S-P (AAdocumentation, AAdrawings, AAdeveloper, AAarchitectural).dwg\n/data/tools/geoexplorer/Chile-NIST/general_drawings/203/43/Planta Subterraneo (AAdocumentation, AAdrawings, AAdeveloper, AAarchitectural).dwg\n/data/tools/geoexplorer/Chile-NIST/general_drawings/203/43/Planta piso 1 (AAdocumentation, AAdrawings, AAdeveloper, AAarchitectural).dwg\n/data/tools/geoexplorer/Chile-NIST/general_drawings/203/43/Planta piso 2 (AAdocumentation, AAdrawings, AAdeveloper, AAarchitectural).dwg\n/data/tools/geoexplorer/Chile-NIST/general_drawings/203/43/Planta piso 3-5 6-14 (AAdocumentation, AAdrawings, AAdeveloper, AAarchitectural).dwg\n/data/tools/geoexplorer/Chile-NIST/general_drawings/203/43/Planta pisos 15-16 (AAdocumentation, AAdrawings, AAdeveloper, AAarchitectural).dwg\n/data/tools/geoexplorer/Chile-NIST/general_drawings/203/43/Planta pisos 17-18 (AAdocumentation, AAdrawings, AAdeveloper, AAarchitectural).dwg\n/data/tools/geoexplorer/Chile-NIST/general_drawings/203/43/Planta pisos19-Terraza (AAdocumentation, AAdrawings, AAdeveloper, AAarchitectural).dwg\n/data/tools/geoexplorer/Chile-NIST/general_drawings/203/43/corte a-a (AAdocumentation, AAdrawings, AAdeveloper, AAarchitectural).dwg\n/data/tools/geoexplorer/Chile-NIST/general_drawings/203/43/corte b-b (AAdocumentation, AAdrawings, AAdeveloper, AAarchitectural).dwg\n/data/tools/geoexplorer/Chile-NIST/general_drawings/203/43/corte c-c (AAdocumentation, AAdrawings, AAdeveloper, AAarchitectural).dwg\n/data/tools/geoexplorer/Chile-NIST/general_drawings/203/43/README.TXT",/data/tools/geoexplorer/Chile-NIST/photos/Maule.Chile.2010/203/3/gabriel_alarcon_100_2899.jpg,/data/tools/geoexplorer/Chile-NIST/photos/Maule.Chile.2010/203/5/santiago_pujol_IMG_0306.JPG,COLEGIO INMACULADA,0.402,,0.68,
204,Castellon 154,-36.828675,-73.044772,Castellon,154,Concepcion,25,0.320450231562975,,,/data/tools/geoexplorer/Chile-NIST/photos/Maule.Chile.2010/204/6/patricio_bonelli_IMG_3633.JPG,/data/tools/geoexplorer/Chile-NIST/photos/Maule.Chile.2010/204/6/patricio_bonelli_IMG_3634.JPG,COLEGIO INMACULADA,0.402,,0.68,
