Structure_ID,Building_Name,latitude,longitude,Street_Name,Street__Number,City,Closest__Station_ID,Distance_To__Closest__Station_km_For_Maule_Chile_2010,Distance_To__Closest__Station_km_For_Valparaiso_Chile_1985,General___Drawings,Main__Building__Photo,Example_of__Severe_Damage,Closest__Station_Name,Max__Hor__PGA__g__For_Maule_Chile_2010,Max__Hor__PGA__g__For_Valparaiso_Chile_1985,Max__Hor__PGV__m_s__For_Maule_Chile_2010,Max__Hor__PGV__m_s__For_Valparaiso_Chile_1985
183,Torre Araucana,-36.829615,-73.052295,Lincoyan,334,Concepcion,25,0.393457451833344,,"/data/tools/geoexplorer/Chile-NIST/general_drawings/183/45/0.00 SUPERFICIES.DWG\n/data/tools/geoexplorer/Chile-NIST/general_drawings/183/45/0.01 ESTUDIO SOMBRA.DWG\n/data/tools/geoexplorer/Chile-NIST/general_drawings/183/45/1.00 SUB -3.DWG\n/data/tools/geoexplorer/Chile-NIST/general_drawings/183/45/1.01 SUB -2.DWG\n/data/tools/geoexplorer/Chile-NIST/general_drawings/183/45/1.02 SUB -01.DWG\n/data/tools/geoexplorer/Chile-NIST/general_drawings/183/45/1.03 PISO 1 ACCESO.DWG\n/data/tools/geoexplorer/Chile-NIST/general_drawings/183/45/1.04 2° PISO.DWG\n/data/tools/geoexplorer/Chile-NIST/general_drawings/183/45/1.05 3º PISO.DWG\n/data/tools/geoexplorer/Chile-NIST/general_drawings/183/45/1.06 4° PISO.DWG\n/data/tools/geoexplorer/Chile-NIST/general_drawings/183/45/1.07 5º PISO.DWG\n/data/tools/geoexplorer/Chile-NIST/general_drawings/183/45/1.08 6° PISO.DWG\n/data/tools/geoexplorer/Chile-NIST/general_drawings/183/45/1.09 7º PISO.DWG\n/data/tools/geoexplorer/Chile-NIST/general_drawings/183/45/1.10 8° PISO.DWG\n/data/tools/geoexplorer/Chile-NIST/general_drawings/183/45/1.11 9º PISO.DWG\n/data/tools/geoexplorer/Chile-NIST/general_drawings/183/45/1.12 10° PISO.DWG\n/data/tools/geoexplorer/Chile-NIST/general_drawings/183/45/1.14 12º PISO.DWG\n/data/tools/geoexplorer/Chile-NIST/general_drawings/183/45/1.15 13º PISO.DWG\n/data/tools/geoexplorer/Chile-NIST/general_drawings/183/45/1.16 14º PISO.DWG\n/data/tools/geoexplorer/Chile-NIST/general_drawings/183/45/1.17 15º PISO.DWG\n/data/tools/geoexplorer/Chile-NIST/general_drawings/183/45/1.18 CUBIERTA.DWG\n/data/tools/geoexplorer/Chile-NIST/general_drawings/183/45/27337 - 01 GENERAL.dwg\n/data/tools/geoexplorer/Chile-NIST/general_drawings/183/45/27337 - 02 FUNDACIONES.dwg\n/data/tools/geoexplorer/Chile-NIST/general_drawings/183/45/27337 - 03 EST. 3º SUBT(med-fierros).dwg\n/data/tools/geoexplorer/Chile-NIST/general_drawings/183/45/27337 - 04 EST. 2º SUBT(med-fierros).dwg\n/data/tools/geoexplorer/Chile-NIST/general_drawings/183/45/27337 - 05 - 05' EST. 1º SUBT(med-fierros).dwg\n/data/tools/geoexplorer/Chile-NIST/general_drawings/183/45/27337 - 06 EST. 1º PISO(med-fierros).dwg\n/data/tools/geoexplorer/Chile-NIST/general_drawings/183/45/27337 - 07 EST. 2º-3º PISO(medidas).dwg\n/data/tools/geoexplorer/Chile-NIST/general_drawings/183/45/27337 - 08 EST. 4º-5º PISO(medidas).dwg\n/data/tools/geoexplorer/Chile-NIST/general_drawings/183/45/27337 - 09 EST. 6º-7º PISO(medidas).dwg\n/data/tools/geoexplorer/Chile-NIST/general_drawings/183/45/27337 - 10 EST. 8º-9º PISO(medidas).dwg\n/data/tools/geoexplorer/Chile-NIST/general_drawings/183/45/27337 - 11 EST.10º-11º-12 PISO(medidas).dwg\n/data/tools/geoexplorer/Chile-NIST/general_drawings/183/45/27337 - 12 EST. 2º PISO(fierros).dwg\n/data/tools/geoexplorer/Chile-NIST/general_drawings/183/45/27337 - 13 EST. 3º PISO(fierros).dwg\n/data/tools/geoexplorer/Chile-NIST/general_drawings/183/45/27337 - 14 EST. 4º PISO(fierros).dwg\n/data/tools/geoexplorer/Chile-NIST/general_drawings/183/45/27337 - 15 EST. 5º PISO(fierros).dwg\n/data/tools/geoexplorer/Chile-NIST/general_drawings/183/45/27337 - 16 EST. 6º PISO(fierros).dwg\n/data/tools/geoexplorer/Chile-NIST/general_drawings/183/45/27337 - 17 EST. 7º PISO(fierros).dwg\n/data/tools/geoexplorer/Chile-NIST/general_drawings/183/45/27337 - 18 EST. 8º PISO(fierros).dwg\n/data/tools/geoexplorer/Chile-NIST/general_drawings/183/45/27337 - 19 EST. 9º PISO(fierros).dwg\n/data/tools/geoexplorer/Chile-NIST/general_drawings/183/45/27337 - 20 EST.10º-11º-12º-13º PISO(fierros).dwg\n/data/tools/geoexplorer/Chile-NIST/general_drawings/183/45/27337 - 21 EST.14º-15º PISO(fierros).dwg\n/data/tools/geoexplorer/Chile-NIST/general_drawings/183/45/27337 - 22 LOSA SUBTERRANEOS.dwg\n/data/tools/geoexplorer/Chile-NIST/general_drawings/183/45/27337 - 23 LOSA SUBTERRANEOS.dwg\n/data/tools/geoexplorer/Chile-NIST/general_drawings/183/45/27337 - 24 LOSA 1° PISO.dwg\n/data/tools/geoexplorer/Chile-NIST/general_drawings/183/45/27337 - 25 LOSA 2° PISO.dwg\n/data/tools/geoexplorer/Chile-NIST/general_drawings/183/45/27337 - 26 LOSA 3 PISO.dwg\n/data/tools/geoexplorer/Chile-NIST/general_drawings/183/45/27337 - 27 LOSA  4° PISO.dwg\n/data/tools/geoexplorer/Chile-NIST/general_drawings/183/45/27337 - 28 LOSA 5 PISO.dwg\n/data/tools/geoexplorer/Chile-NIST/general_drawings/183/45/27337 - 29 LOSA  6ºPISO.dwg\n/data/tools/geoexplorer/Chile-NIST/general_drawings/183/45/27337 - 30 LOSA 7º  PISO.dwg\n/data/tools/geoexplorer/Chile-NIST/general_drawings/183/45/27337 - 31 LOSA  8° PISO.dwg\n/data/tools/geoexplorer/Chile-NIST/general_drawings/183/45/27337 - 32 LOSA  9° PISO.dwg\n/data/tools/geoexplorer/Chile-NIST/general_drawings/183/45/27337 - 33 LOSA 10º al 13º PISO.dwg\n/data/tools/geoexplorer/Chile-NIST/general_drawings/183/45/27337 - 34 LOSA 14° PISO.dwg\n/data/tools/geoexplorer/Chile-NIST/general_drawings/183/45/27337 - 35 LOSA 15° PISO.dwg\n/data/tools/geoexplorer/Chile-NIST/general_drawings/183/45/27337 - 36 ESCALERAS.dwg\n/data/tools/geoexplorer/Chile-NIST/general_drawings/183/45/27337 - 37 ESCALERAS.dwg\n/data/tools/geoexplorer/Chile-NIST/general_drawings/183/45/27337 - 38 (ELEVACION EJE 1-2).dwg\n/data/tools/geoexplorer/Chile-NIST/general_drawings/183/45/27337 - 39 (ELEVACION EJE 6).dwg\n/data/tools/geoexplorer/Chile-NIST/general_drawings/183/45/27337 - 40 (ELEVACION EJE 5).dwg\n/data/tools/geoexplorer/Chile-NIST/general_drawings/183/45/27337 - 41 (ELEVACION EJE 7).dwg\n/data/tools/geoexplorer/Chile-NIST/general_drawings/183/45/27337 - 42 (ELEVACION EJE A).dwg\n/data/tools/geoexplorer/Chile-NIST/general_drawings/183/45/27337 - 43 (ELEVACION EJE C').dwg\n/data/tools/geoexplorer/Chile-NIST/general_drawings/183/45/27337 - 44 (ELEVACION EJE H).dwg\n/data/tools/geoexplorer/Chile-NIST/general_drawings/183/45/27337 - 45 (ELEVACION EJE 3-4).dwg\n/data/tools/geoexplorer/Chile-NIST/general_drawings/183/45/27337 - 46 (ELEVACION EJE 8).dwg\n/data/tools/geoexplorer/Chile-NIST/general_drawings/183/45/27337 - 47 (ELEVACION EJE 9).dwg\n/data/tools/geoexplorer/Chile-NIST/general_drawings/183/45/27337 - 48 (ELEVACION EJE B).dwg\n/data/tools/geoexplorer/Chile-NIST/general_drawings/183/45/27337 - 49(ELEVACION EJE D').dwg\n/data/tools/geoexplorer/Chile-NIST/general_drawings/183/45/27337 - 50 (ELEVACION EJE G).dwg\n/data/tools/geoexplorer/Chile-NIST/general_drawings/183/45/27337 - 51 (ELEVACION EJE C).dwg\n/data/tools/geoexplorer/Chile-NIST/general_drawings/183/45/3.00 cortes1.DWG\n/data/tools/geoexplorer/Chile-NIST/general_drawings/183/45/3.01 cortes2.DWG\n/data/tools/geoexplorer/Chile-NIST/general_drawings/183/45/4.00 P. CONTRUCTIVAS SUB -3.DWG\n/data/tools/geoexplorer/Chile-NIST/general_drawings/183/45/4.01 P. CONTRUCTIVAS SUB -1.DWG\n/data/tools/geoexplorer/Chile-NIST/general_drawings/183/45/4.02 P. CONTRUCTIVAS PISOS.DWG\n/data/tools/geoexplorer/Chile-NIST/general_drawings/183/45/4.03 P. CONTRUCTIVAS PISOS.DWG\n/data/tools/geoexplorer/Chile-NIST/general_drawings/183/45/4.04 P. CONTRUCTIVAS PISOS.DWG\n/data/tools/geoexplorer/Chile-NIST/general_drawings/183/45/4.05 P. CONTRUCTIVAS PISOS.DWG\n/data/tools/geoexplorer/Chile-NIST/general_drawings/183/45/4.06 P. CONTRUCTIVAS PISOS.DWG\n/data/tools/geoexplorer/Chile-NIST/general_drawings/183/45/4.07 P. CONTRUCTIVAS PISOS.DWG\n/data/tools/geoexplorer/Chile-NIST/general_drawings/183/45/4.08 P. CONTRUCTIVAS PISOS.DWG\n/data/tools/geoexplorer/Chile-NIST/general_drawings/183/45/4.09 DETALLE PUERTAS Y VENT.DWG\n/data/tools/geoexplorer/Chile-NIST/general_drawings/183/45/4.10 DETALLE DE TABIQUES VI.DWG\n/data/tools/geoexplorer/Chile-NIST/general_drawings/183/45/5.00 PLANTA DE CIELOS -3 -2-1.DWG\n/data/tools/geoexplorer/Chile-NIST/general_drawings/183/45/5.00 PLANTA DE CIELOS -3 -2-1.PDF\n/data/tools/geoexplorer/Chile-NIST/general_drawings/183/45/5.00 PLANTA DE CIELOS -3 -2.DWG\n/data/tools/geoexplorer/Chile-NIST/general_drawings/183/45/5.01 PLANTA DE CIELOS 1, 2, 3.DWG\n/data/tools/geoexplorer/Chile-NIST/general_drawings/183/45/5.01 PLANTA DE CIELOS 1, 2, 3.PDF\n/data/tools/geoexplorer/Chile-NIST/general_drawings/183/45/5.01 PLANTA DE CIELOS 1, 2.DWG\n/data/tools/geoexplorer/Chile-NIST/general_drawings/183/45/5.02 PLANTA DE CIELOS 4, 5, 6.DWG\n/data/tools/geoexplorer/Chile-NIST/general_drawings/183/45/5.02 PLANTA DE CIELOS 4, 5, 6.PDF\n/data/tools/geoexplorer/Chile-NIST/general_drawings/183/45/5.02 PLANTA DE CIELOS 4, 5.DWG\n/data/tools/geoexplorer/Chile-NIST/general_drawings/183/45/5.03 PLANTA DE CIELOS 7, 8, 9.DWG\n/data/tools/geoexplorer/Chile-NIST/general_drawings/183/45/5.03 PLANTA DE CIELOS 7, 8, 9.PDF\n/data/tools/geoexplorer/Chile-NIST/general_drawings/183/45/5.03 PLANTA DE CIELOS 7, 8.DWG\n/data/tools/geoexplorer/Chile-NIST/general_drawings/183/45/5.04 PLANTA DE CIELOS 10, 1.DWG\n/data/tools/geoexplorer/Chile-NIST/general_drawings/183/45/5.05 PLANTA DE CIELOS 13, 1.DWG\n/data/tools/geoexplorer/Chile-NIST/general_drawings/183/45/5.05 PLANTA DE CIELOS 13, 14 , 15.DWG\n/data/tools/geoexplorer/Chile-NIST/general_drawings/183/45/5.05 PLANTA DE CIELOS 13, 14, 15.PDF\n/data/tools/geoexplorer/Chile-NIST/general_drawings/183/45/6.00 ESCANTILLON A-A.DWG\n/data/tools/geoexplorer/Chile-NIST/general_drawings/183/45/6.01 ESCANTILLON B-B.DWG\n/data/tools/geoexplorer/Chile-NIST/general_drawings/183/45/6.02 ESCANTILLON C-C.DWG\n/data/tools/geoexplorer/Chile-NIST/general_drawings/183/45/6.03 ESCANTILLON D-D.DWG\n/data/tools/geoexplorer/Chile-NIST/general_drawings/183/45/6.04 ESCANTILLON E-E.DWG\n/data/tools/geoexplorer/Chile-NIST/general_drawings/183/45/7.00 DETALLES ESCALAS.DWG\n/data/tools/geoexplorer/Chile-NIST/general_drawings/183/45/7.01 DETALLE ESCALERA ESCUL.DWG\n/data/tools/geoexplorer/Chile-NIST/general_drawings/183/45/8.00 DETALLES DE SHAFT- ESC.DWG\n/data/tools/geoexplorer/Chile-NIST/general_drawings/183/45/8.01 DETALLE AUDITORIO.DWG\n/data/tools/geoexplorer/Chile-NIST/general_drawings/183/45/8.02 DETALLE DE ACCESOS-AST.DWG\n/data/tools/geoexplorer/Chile-NIST/general_drawings/183/45/8.03 DETALLES FACHADA LINCO.DWG\n/data/tools/geoexplorer/Chile-NIST/general_drawings/183/45/8.04 DETALLE DE HALL DE ACC.DWG\n/data/tools/geoexplorer/Chile-NIST/general_drawings/183/45/8.05 DETALLE DE MARQUESINAS.DWG\n/data/tools/geoexplorer/Chile-NIST/general_drawings/183/45/8.06 DETALLE DE KITCHENETTE.DWG\n/data/tools/geoexplorer/Chile-NIST/general_drawings/183/45/8.07 DETALLE TERRAZAS.DWG\n/data/tools/geoexplorer/Chile-NIST/general_drawings/183/45/9.00 DETALLES DE BAÑOS 1.DWG\n/data/tools/geoexplorer/Chile-NIST/general_drawings/183/45/9.01 DETALLES DE BAÑOS 2.DWG\n/data/tools/geoexplorer/Chile-NIST/general_drawings/183/45/9.02 DETALLES DE BAÑOS 3.DWG\n/data/tools/geoexplorer/Chile-NIST/general_drawings/183/45/9.03 DETALLES DE BAÑOS 4.DWG\n/data/tools/geoexplorer/Chile-NIST/general_drawings/183/45/9.04 DETALLES DE BAÑOS 5.DWG\n/data/tools/geoexplorer/Chile-NIST/general_drawings/183/45/DETALLE DE CIELO AUDITORIO 14.DWG\n/data/tools/geoexplorer/Chile-NIST/general_drawings/183/45/DETALLE DE CIELO AUDITORIO 14.PDF\n/data/tools/geoexplorer/Chile-NIST/general_drawings/183/45/DETALLE PUERTAS.DWG\n/data/tools/geoexplorer/Chile-NIST/general_drawings/183/45/DETALLE PUERTAS.PDF\n/data/tools/geoexplorer/Chile-NIST/general_drawings/183/45/EETT LA Modif. 15 Pisos.pdf\n/data/tools/geoexplorer/Chile-NIST/general_drawings/183/45/ELEV MOD TRUEBOND (1).DWG\n/data/tools/geoexplorer/Chile-NIST/general_drawings/183/45/ELEV MOD TRUEBOND.DWG\n/data/tools/geoexplorer/Chile-NIST/general_drawings/183/45/README.TXT",/data/tools/geoexplorer/Chile-NIST/photos/Maule.Chile.2010/183/1/jay_harris_Torre Araucana - 00222 - JLH.JPG,/data/tools/geoexplorer/Chile-NIST/photos/Maule.Chile.2010/183/1/jay_harris_Torre Araucana - 0046 - JLH.JPG,COLEGIO INMACULADA,0.402,,0.68,
184,Torre O'Higgins,-36.829452,-73.055115,Av Liberador Bernardo O'Higgins,241,Concepcion,25,0.624913522391941,,"/data/tools/geoexplorer/Chile-NIST/general_drawings/184/43/A01 (TOdocumentation, TOdrawings, TOmunicipalPermit, TOarchitectural).PDF\n/data/tools/geoexplorer/Chile-NIST/general_drawings/184/43/A02 (TOdocumentation, TOdrawings, TOmunicipalPermit, TOarchitectural).PDF\n/data/tools/geoexplorer/Chile-NIST/general_drawings/184/43/A03 (TOdocumentation, TOdrawings, TOmunicipalPermit, TOarchitectural).PDF\n/data/tools/geoexplorer/Chile-NIST/general_drawings/184/43/A04 (TOdocumentation, TOdrawings, TOmunicipalPermit, TOarchitectural).PDF\n/data/tools/geoexplorer/Chile-NIST/general_drawings/184/43/A05 (TOdocumentation, TOdrawings, TOmunicipalPermit, TOarchitectural).PDF\n/data/tools/geoexplorer/Chile-NIST/general_drawings/184/43/A06 (TOdocumentation, TOdrawings, TOmunicipalPermit, TOarchitectural).PDF\n/data/tools/geoexplorer/Chile-NIST/general_drawings/184/43/A07 (TOdocumentation, TOdrawings, TOmunicipalPermit, TOarchitectural).PDF\n/data/tools/geoexplorer/Chile-NIST/general_drawings/184/43/A08 (TOdocumentation, TOdrawings, TOmunicipalPermit, TOarchitectural).PDF\n/data/tools/geoexplorer/Chile-NIST/general_drawings/184/43/A09 (TOdocumentation, TOdrawings, TOmunicipalPermit, TOarchitectural).PDF\n/data/tools/geoexplorer/Chile-NIST/general_drawings/184/43/A10 (TOdocumentation, TOdrawings, TOmunicipalPermit, TOarchitectural).PDF\n/data/tools/geoexplorer/Chile-NIST/general_drawings/184/43/A11 (TOdocumentation, TOdrawings, TOmunicipalPermit, TOarchitectural).PDF\n/data/tools/geoexplorer/Chile-NIST/general_drawings/184/43/A12 (TOdocumentation, TOdrawings, TOmunicipalPermit, TOarchitectural).PDF\n/data/tools/geoexplorer/Chile-NIST/general_drawings/184/43/A13 (TOdocumentation, TOdrawings, TOmunicipalPermit, TOarchitectural).PDF\n/data/tools/geoexplorer/Chile-NIST/general_drawings/184/43/A14 (TOdocumentation, TOdrawings, TOmunicipalPermit, TOarchitectural).PDF\n/data/tools/geoexplorer/Chile-NIST/general_drawings/184/43/A15 (TOdocumentation, TOdrawings, TOmunicipalPermit, TOarchitectural).PDF\n/data/tools/geoexplorer/Chile-NIST/general_drawings/184/43/E Concepcion Fundaciones+pluma (TOdocumentation, TOdrawings, TOdeveloper, TOstructural).dwg\n/data/tools/geoexplorer/Chile-NIST/general_drawings/184/43/E Concepcion Plantas losas nuevas (TOdocumentation, TOdrawings, TOdeveloper, TOstructural).dwg\n/data/tools/geoexplorer/Chile-NIST/general_drawings/184/43/E00 (TOdocumentation, TOdrawings, TOmunicipalPermit, TOstructural).PDF\n/data/tools/geoexplorer/Chile-NIST/general_drawings/184/43/E03 (TOdocumentation, TOdrawings, TOmunicipalPermit, TOstructural).PDF\n/data/tools/geoexplorer/Chile-NIST/general_drawings/184/43/E04 (TOdocumentation, TOdrawings, TOmunicipalPermit, TOstructural).PDF\n/data/tools/geoexplorer/Chile-NIST/general_drawings/184/43/E05 (TOdocumentation, TOdrawings, TOmunicipalPermit, TOstructural).PDF\n/data/tools/geoexplorer/Chile-NIST/general_drawings/184/43/E06 (TOdocumentation, TOdrawings, TOmunicipalPermit, TOstructural).PDF\n/data/tools/geoexplorer/Chile-NIST/general_drawings/184/43/E07 (TOdocumentation, TOdrawings, TOmunicipalPermit, TOstructural).PDF\n/data/tools/geoexplorer/Chile-NIST/general_drawings/184/43/E08 (TOdocumentation, TOdrawings, TOmunicipalPermit, TOstructural).PDF\n/data/tools/geoexplorer/Chile-NIST/general_drawings/184/43/E09 (TOdocumentation, TOdrawings, TOmunicipalPermit, TOstructural).PDF\n/data/tools/geoexplorer/Chile-NIST/general_drawings/184/43/E10 (TOdocumentation, TOdrawings, TOmunicipalPermit, TOstructural).PDF\n/data/tools/geoexplorer/Chile-NIST/general_drawings/184/43/E11 (TOdocumentation, TOdrawings, TOmunicipalPermit, TOstructural).PDF\n/data/tools/geoexplorer/Chile-NIST/general_drawings/184/43/E12 (TOdocumentation, TOdrawings, TOmunicipalPermit, TOstructural).PDF\n/data/tools/geoexplorer/Chile-NIST/general_drawings/184/43/E12A (TOdocumentation, TOdrawings, TOmunicipalPermit, TOstructural).PDF\n/data/tools/geoexplorer/Chile-NIST/general_drawings/184/43/ELEVACIONES-CORTES-MODIFICADAS-2 (TOdocumentation, TOdrawings, TOdeveloper, TOarchitectural).dwg\n/data/tools/geoexplorer/Chile-NIST/general_drawings/184/43/Elevaciones3 (TOdocumentation, TOdrawings, TOdeveloper, TOstructural).dwg\n/data/tools/geoexplorer/Chile-NIST/general_drawings/184/43/Estanque EC 16-06-2007 (TOdocumentation, TOdrawings, TOdeveloper, TOstructural).dwg\n/data/tools/geoexplorer/Chile-NIST/general_drawings/184/43/PLANTAS (TOdocumentation, TOdrawings, TOdeveloper, TOarchitectural).dwg\n/data/tools/geoexplorer/Chile-NIST/general_drawings/184/43/S00 (TOdocumentation, TOdrawings, TOmunicipalPermit, TOentibación).PDF\n/data/tools/geoexplorer/Chile-NIST/general_drawings/184/43/plantas1 (TOdocumentation, TOdrawings, TOdeveloper, TOstructural).dwg\n/data/tools/geoexplorer/Chile-NIST/general_drawings/184/43/README.TXT",/data/tools/geoexplorer/Chile-NIST/photos/Maule.Chile.2010/184/5/santiago_pujol_IMG_0203.JPG,/data/tools/geoexplorer/Chile-NIST/photos/Maule.Chile.2010/184/5/santiago_pujol_IMG_0203.JPG,COLEGIO INMACULADA,0.402,,0.68,
